destination_id,name,description,latitude,longitude,address
1,95 Farm villa resto,"95 Farm Villa Resto menawarkan menu andalan seperti Nasi Liwet Ikan Bakar, Nasi Goreng, dan Sate Ayam. Bahan makanan didapatkan dari pasar tradisional dan pasar Inpres Sumedang. Untuk menjaga kualitas, bahan-bahan makanan dapat disimpan maksimal 4 hari di freezer agar tetap segar. Hal ini mencerminkan komitmen mereka terhadap mutu produk yang disajikan kepada pelanggan. Selain menawarkan makanan, 95 Farm Villa Resto menambah pendapatan melalui penyewaan villa, spot foto, dan penjualan pakan hewan karena di dalamnya terdapat beberapa hewan yang pastinya menambah edukasi untuk anak-anak seperti mini zoo di dalam restoran dan villa. Fasilitas yang tersedia meliputi karaoke outdoor, ruang rapat, wedding area, mushola, area parkir luas, dan tempat camping. Semua ini memberikan pengalaman menyeluruh bagi pengunjung. Jadi bukan hanya menawarkan makanan dan minuman serta villa saja, namun juga fasilitas penunjang lainnya bagi konsumen.",-6.8738638574852695,107.89470027900306,"Margalaksana, Kec. Sumedang Sel., Kabupaten Sumedang, Jawa Barat 45311"
2,Agrowisata Sawah Menak,"Agrowisata sawah menak merupakan perkebunan Mangga Gedong Gincu dan Jambu Kristal bernama Sawah Menak, di Dusun Bantargintung Desa Karyamukti Kecamatan Tomo. Agrowisata Sawah Menak memakai konsep memetik dan makan buah Mangga Gedong Gincu di tempat. Selain Mangga Gedong Gincu, ada juga Jambu Kristal di perkebunan tersebut. Tempatnya sangat strategis karena berada di pinggir jalan nasional, mobil bisa langsung masuk, langsung petik, kupas dan makan di tempat, luar biasa sensasinya makan mangga dan jambu di kebunnya langsung",-6.780731624989411,108.11174469943846,"Karyamukti, Kec. Tomo, Kabupaten Sumedang, Jawa Barat 45382"
3,Alam Ciloa,Sebuah destinasi di Tanjungsari yang memadukan penginapan dengan restoran dan area rekreasi. Tempat ini menawarkan suasana santai untuk keluarga dengan fasilitas tambahan seperti taman kelinci dan kolam budidaya ikan.,-6.895161514482117,107.8098516422412,"Jalan Ciloa No.17, Gudang, Kec. Tanjungsari, Kabupaten Sumedang, Jawa Barat 42167"
4,Alam Tree Cibunar,"Merupakan destinasi yang berlokasi di Desa Cibunar, Kecamatan Rancakalong, sebuah daerah pedesaan yang subur dan hijau. Kawasan ini dikenal sebagai pusat seni tradisi Sunda, terutama Tarawangsa dan tradisi syukuran panen Ngalaksa, yang menawarkan pengalaman budaya otentik.",-6.831743424193144,107.82884048647026,"Jl. Cibunar, Cibunar, Kec. Rancakalong, Kabupaten Sumedang, Jawa Barat 45361"
5,Alun-alun Sumedang,"Dahulu, Alun-Alun Sumedang berupa tanah lapang yang ditumbuhi rerumputan dan pepohonan disekelilingnya, namun pada tahun 2020 tempat ini diperINDAH dengan adanya taman, kolam, tempat permainan anak serta fasilitas lainnya, dan pada malam hari dengan dihiasi oleh lampu lampu Alun-Alun Sumedang terlihat semakin CANTIK. Pada bagian tengah tempat ini terdapat bangunan berupa Monumen yang dikenal dengan Monumen Lingga, berupa peninggalan jaman kolonial Belanda yang didirikan pada Tahun 1922. LINGGA menjadi lambang Kabupaten Sumedang. Monumen Lingga berdiri kokoh di tengah Alun-alun Sumedang. Lingga adalah sebuah penghargaan atas pengabdian memimpin rakyat dibangun di jantung pemerintahan Sumedang. Penghargaan ini justru diberikan kepada bupati yang dianggap akan memberontak oleh Belanda. Monumen penghargaan ini dipersembahkan bagi Bupati Pangeran Aria Soeriaatmadja yang wafat di Mekah dan dijuluki Pangeran Mekah. Namanya juga diabadikan menjadi jalan persis di sebelah utara Lingga itu. Monumen ini didirikan tahun 1922 setelah bupati yang hidupnya sangat sederhana ini tak lagi menjadi orang nomor satu. Pangeran Soeriaatmadja menjadi Bupati Sumedang sejak 31 Januari 1883-1919. Monumen Lingga yang diresmikan oleh Gubernur Jenderal Mr D Fock di bagian dindingnya ditulis, Pangabakti Ka Suwarginan Pangeran Soeriaatmadja, Bupati Sumedang 1883-1919, ping 1 Juni 1919. Bagian atas Lingga berbentuk setengah bola dan terbuat dari pelat tembaga, melambangkan setinggi-tingginya puncak prestasi manusia, tidak akan mencapai kesempurnaan yang hakiki, sebab kesempurnaan sesungguhnya hanyalah milik Allah SWT. Sedangkan pintu Lingga sendiri, yang dibangun empat buah pada setiap penjuru mata angin dengan anak tangga bertrap-trap sebagai simbol pendakian ruhani manusia dalam mencapai keridloan Allah dengan terlebih dahulu menguasai empat unsur nafsu yang terdapat pada diri setiap insan, amarah, sawiyah, lawamah dan mutmainah. Dengan penguasaan keempat unsur nafsu itu, maka manusia dengan pengampunan Allah. Atas segala dosanya, diibaratkan seperti bayi yang baru lahir dari rahim ibunya. Lambang Kabupaten Sumedang diciptakan R. MAHAR MARTANEGARA, putera Bupati Bandung, R Adipati Aria Martanagara yang masih penya keturunan Sumedang. Lambang ini diresmikan 13 Mei 1959.

Perisai, melambangkan jiwa kesatria utama, percaya pada diri sendiri.
Sisi Merah, semangat keberanian
Dasar Hijau, lambang kesuburan
Bentuk setengah bola serta bentuk kubus pada ” LINGGA ”, mlambangkan manusia tidak ada yang sempurna.
Sinar Matahari, melambangkan semangat rakyat dalam mencapai kemajuan.
Warna Kuning Emas, berarti keluhuran budi dan kebesaran jiwa.
Sinar yang ke 17, angka sakti, tanggal Proklamasi Kemerdekaan Indonesia.
Delapan bentuk dari pada ” LINGGA ” , lambang bulan Proklamasi Indonesia.
Sembilan belah batu pada ” LINGGA ”, empat buah kaki tembok dan lima buah anak – anak tangga : Lambang Tahu Proklamasi Republik Indonesia (1945).
Tulisan ” INSUN MEDAL ”, melambangkan kristalisasi dari pada jiwa dan kepribadian rakyat Sumedang.",-6.8594802501957135,107.92525385251814,"Alun-Alun, Regol Wetan, Kec. Sumedang Sel., Kabupaten Sumedang, Jawa Barat 45311"
6,Arboretum Unpad,"Sebuah kawasan hijau di dalam kampus Universitas Padjadjaran yang berfungsi sebagai pusat konservasi tumbuhan, penelitian, dan wisata edukasi. Tempat ini dilengkapi dengan berbagai ekosistem buatan seperti danau dan sawah, serta area",-6.931568376933938,107.77419412910038,"Cikeruh, Kec. Jatinangor, Kabupaten Sumedang, Jawa Barat 45363"
7,Astana Gede Kabuyutan Cipaku,"Merupakan situs pemakaman kuno yang menjadi tempat peristirahatan Prabu Lembu Agung, salah satu raja dari Kerajaan Sumedanglarang. Lokasi ini banyak dikunjungi oleh para peziarah dari berbagai daerah untuk melakukan ritual doa, menjadikannya destinasi wisata ziarah dan sejarah yang penting.",-6.889741863770543,108.07278325804216,"Cipaku, Kec. Darmaraja, Kabupaten Sumedang, Jawa Barat 45372"
8,BAKSO ABRAG SUMEDANG,"Salah satu kedai bakso terlaris dan paling populer di Sumedang, yang selalu ramai dikunjungi pembeli. Tempat ini menjadi favorit di kalangan warga lokal karena rasanya yang lezat dan harganya yang terjangkau, menjadikannya tujuan kuliner yang wajib dicoba.",-6.858580075730105,107.92588275924034,"Jl. Kebonkol No.11, Regol Wetan, sumedang sekarang, Kabupaten Sumedang, Jawa Barat 45311"
9,Bale MarWind Camp,"Bale MarWind Camp adalah destinasi wisata alam di perbukitan Margawindu, Sumedang, Jawa Barat, yang menawarkan pengalaman healing santai dengan pemandangan eksotis pegunungan. Cocok untuk camping, event gathering, sesi fotografi, dan pembuatan konten, lengkap dengan fasilitas seperti spot photoshoot menggunakan jeep.
",-6.918977717473824,1.07961162966489e+16,"Perkebunan Margawindu, Citengah Cisoka, Citengah, Kec. Sumedang Sel., Kabupaten Sumedang, Jawa Barat 45311"
10,Balong Geulis,"Balong Geulis merupakan kawasan wisata yang ada di dataran tinggi Kecamatan Cibugel. Di mana kawasan ini terletak di ketinggian 1.174 mdpl. Hal ini membuat tempat tersebut memiliki udara yang lebih sejuk dan view alam yang cantik.Nama Balong Geulis sendiri memiliki makna “kolam cantik”, nama tersebut tentunya sesuai dengan kolam airnya yang jernih dan background pemandangannya yang cantik. Dikelilingi rimbunnya hutan pinus Gunung Kareumbi dan hamparan Kebun Teh Cibubut.Setidaknya ada dua jenis kolam renang yang bisa dijamah di sini, yakni kolam renang utama dengan air jernih dan dikelilingi pemandangan alam yang memukau, perpaduan lautan awan dan pegunungan yang cantik. Lalu, ada kolam anak yang dilengkapi wahana air seperti perosotan warna-warni yang menjadikan kegiatan berenang lebih seru. Fakta menariknya air kedua kolam ini berasal dari sumber mata air asli pegunungan, sehingga terasa dingin dan menyegarkan. Sangat cocok untuk berenang di siang bolong.",-6.9492963319721,107.99300076066768,"Jayamekar, Kec. Cibugel, Kabupaten Sumedang, Jawa Barat 45375"
11,Baru Beureum,"Merupakan gerbang utama bagi para pendaki yang mencari tantangan di Gunung Manglayang. Jalur ini dikenal dengan medannya yang terjal dan menantang, melewati sisa-sisa aliran lava purba, menjadikannya pilihan utama untuk petualangan    

hiking yang memacu adrenalin.",-6.879837445719484,107.75700793900384,"Ciloa, Sindangsari, Kec. Sukasari, Kabupaten Sumedang, Jawa Barat 45366"
12,Base Camp Erfarm,"Destinasi ini menawarkan pengalaman berkemah dan kegiatan luar ruang yang terorganisir dan nyaman untuk seluruh anggota keluarga. Dengan fasilitas yang memadai dan lingkungan yang aman, tempat ini ideal untuk liburan keluarga, gathering, atau pengenalan petualangan alam bagi anak-anak.",-6.912857234854871,107.77811681589148,"Jl. Cikuda No.18, Cileles, Kec. Jatinangor, Kabupaten Sumedang, Jawa Barat 45363"
13,BASISIR MUDA DEMANG Camping ground,"Sebuah area perkemahan yang berlokasi di kawasan Jatigede yang indah, menjadi basis bagi para petualang yang ingin menjelajahi dan menyatu dengan alam. Tempat ini menawarkan pengalaman berkemah dengan suasana yang tenang untuk melepas penat",-6.886825102614027,108.07086688652078,"Jln, Karangpakuan, Kec. Darmaraja, Kabupaten Sumedang, Jawa Barat"
14,Baso sekar mas eko,"Merupakan ikon kuliner di Sumedang yang sangat populer dan tidak pernah sepi pengunjung. Tempat ini wajib dikunjungi oleh para pecinta bakso untuk mencicipi cita rasa legendaris dengan beragam varian, dari bakso iga hingga bakso jumbo.",-6.841641942210676,107.92758940440557,"Jl. Tampomas, Kotakaler, Kec. Sumedang Utara, Kabupaten Sumedang, Jawa Barat 45621"
15,Batu Alam | Rumah Makan - Kolam renang - Pemancingan - Kolam Renang,"Sebuah destinasi rekreasi terpadu yang menggabungkan rumah makan dengan berbagai fasilitas hiburan. Pengunjung dapat menikmati kolam renang untuk dewasa dan anak-anak, area pemancingan, serta spot foto menarik dalam satu lokasi, menjadikannya pilihan ideal untuk liburan keluarga.",-6.844579308290782,107.82741128554198,"Jl. Citali - Rancakalong KM. 11 Dsn. Ciherang, RT.02/RW.03, Pasir Biru, Kec. Rancakalong, Kabupaten Sumedang, Jawa Barat 45361"
16,Bekas Rumah Tinggal Cut Nyak Dien,"Ketika Cut Nyak Dien diasingkan ke Sumedang, oleh Bupati Sumedang saat itu, Pangeran Aria Soeria Atmadja ditempatkan di sebuah rumah panggung. Rumah panggung ini terletak di Kampung Kaum Kelurahan Regol Wetan, tepatnya sekitar 100 meter sebelah barat Masjid Agung Sumedang. Bentuk rumah panggungnya sebagian masih asli. Terutama dinding dan lantai dari bambu. Sedangkan sebagian yang lainnya sudah diganti. Dinding rumah yang lama bentuk anyaman bambunya lebih besar dan tebal. Tiang-tiang utama yang terbuat dari kayu juga masih asli. Tiang-tiangnya masih kokoh tidak dimakan rayap walau sebagian ditanam di dalam tanah.",-6.858993499929314,107.91929189741992,"Jl. Pangeran Soeriaatmadja No.17, Kotakulon, Kec. Sumedang Sel., Kabupaten Sumedang, Jawa Barat 45311"
17,Bendungan Hidden gem,,-6.967993045713564,107.83947345200863,"Dusun Bendungan, RT.02/RW.02, Cimanggung, Kec. Cimanggung, Kabupaten Sumedang, Jawa Barat 45364"
18,Bendungan Jatigede," Merupakan bendungan terbesar kedua di Indonesia, menawarkan pemandangan lanskap air yang spektakuler. Selain menjadi objek foto yang populer, bendungan ini juga berfungsi sebagai pusat rekreasi untuk berbagai aktivitas seperti olahraga air dan budidaya perikanan",-6.856014240498136,108.09760249239343,"Cijeungjing, Kec. Jatigede, Kabupaten Sumedang, Jawa Barat 45377"
19,Benteng Darmaga,Situs sejarah peninggalan kolonial Belanda yang berlokasi di aliran Sungai Cipeles. Benteng ini dulunya merupakan bendungan strategis yang digunakan untuk menghambat pergerakan musuh dengan cara membendung aliran sungai,-6.845584471026441,107.92094099699172,"Kotakulon, Kec. Sumedang Sel., Kabupaten Sumedang, Jawa Barat 45311"
20,Benteng Gunung Gadung,"Kampung Gunung Gadung merupakan sebuah lokasi pemukiman penduduk yang berada di bagian timur wilayah Desa Sukajaya Kecamatan Sumedang Selatan Kabupaten Sumedang. Sebuah lokasi yang cukup jauh dari pusat pemerintahan Desa Sukajaya, dari kantor Desa Sukajaya jaraknya sekitar 2,7 km ke arah selatan melintasi jalan raya Gunung Puyuh - Nangorak dilanjut ke Kampung Cihuni dan Kampung Cipunareun. Jika menggunakan jalan Ciloa - Haurlawang, jaraknya lebih jauh sekitar 3,5 km. Kawasan pemukiman penduduk Kampung Gunung Gadung dikelilingi oleh lahan pertanian berupa lahan pesawahan dan lahan perkebunan. Di bagian barat dan selatan pemukiman penduduknya merupakan lahan pesawahan yang subur karena mendapatkan suplai pengaiaran dari saluran irigasi yang bersumber dari aliran Sungai Cipicung di sebelah utara dekat Kampung Kukulu.",-6.878950018247792,107.91288015679648,"Margamekar, Kec. Sumedang Sel., Kabupaten Sumedang, Jawa Barat 45311"
21,Benteng Palasari,"Sebuah kompleks benteng pertahanan peninggalan Belanda yang dibangun antara tahun 1913-1917 di puncak Gunung Palasari. Terdiri dari delapan bangunan beton tebal, situs ini diduga berfungsi sebagai gudang mesiu dan pos pengamatan militer",-6.855457701793471,107.91208046099192,"Kotakulon, Kec. Sumedang Sel., Kabupaten Sumedang, Jawa Barat 45311"
22,Benteng Pasir Kolecer,"Peninggalan benteng Belanda yang dibangun sekitar tahun 1907, menampilkan struktur yang menyerupai bunker pertahanan di atas bukit. Tempat ini menawarkan wisata sejarah dengan pemandangan lembah perbukitan di sekitarnya",-6.882620848633425,107.91248010406002,"Margamekar, Kec. Sumedang Sel., Kabupaten Sumedang, Jawa Barat 45311"
23,Bhumi Nadya,"Sebuah lokasi yang beralamat di Kecamatan Rancakalong. Berdasarkan informasi yang tersedia, belum ada deskripsi detail mengenai atraksi atau kegiatan spesifik yang ditawarkan di tempat ini.",-6.842587376138294,107.8285900336641,"Jl. Tanjungsari - Rancakalong No.Km 11, RT.04/RW.05, Dusun Pasir, Kampung Pasirpogor, Kec. Rancakalong, Kabupaten Sumedang, Jawa Barat 45361"
24,Botram Yu Lesehan RM Sawargi Sumedang,"Rumah makan yang menyajikan pengalaman kuliner khas Sunda otentik. Tempat ini populer untuk ""botram"" atau makan bersama dalam porsi besar, dengan konsep ""lesehan"" atau duduk di lantai yang memperkuat suasana kebersamaan",-6.831823225970875,107.9165075659022,"depan rumah makan sawargi, Jl. Prabu Gajah Agung, bypass, Kec. Sumedang Utara, Kabupaten Sumedang, Jawa Barat 45321"
25,BUDIDAYA LEBAH MADU PASUNDAN MARGAWINDU,"Destinasi wisata edukatif yang cocok untuk keluarga, di mana pengunjung dapat belajar tentang lebah madu. Atraksi utamanya adalah pengalaman unik menyedot madu segar langsung dari sarang lebah teuweul yang tidak menyengat.",-6.916305721313484,107.95891284525648,"Citengah, Kec. Sumedang Sel., Kabupaten Sumedang, Jawa Barat"
26,Bukit Akasia,"Kawasan wisata alam di ketinggian 1.281 mdpl yang terkenal dengan pemandangan matahari terbenamnya yang memesona. Tempat ini menjadi lokasi favorit untuk relaksasi atau healing, dilengkapi dengan pusat kuliner dan area untuk berkemah. ",-6.924453121113249,107.79804706827504,"Cinanjung, Kec. Tanjungsari, Kabupaten Sumedang, Jawa Barat 45362"
27,Bukit naga panorama jatinangor sumedang,Sebuah titik pandang yang daya tarik utamanya adalah menyajikan pemandangan alam panorama yang indah di kawasan Jatinangor. Tempat ini cocok bagi mereka yang ingin menikmati keindahan alam dari ketinggian secara pasif.,-6.924096158010111,107.79813814990024,"Hegarmanah, Kec. Jatinangor, Kabupaten Sumedang, Jawa Barat 45363"
28,Bukit Pangupukan,"Dikenal sebagai lokasi utama untuk olahraga paralayang di Sumedang. Dari titik lepas landas, para petualang dapat menikmati sensasi terbang sambil menyaksikan pemandangan spektakuler Waduk Jatigede dari atas.",-6.874343200419544,108.0597887027486,"Karangpakuan, Kec. Darmaraja, Kabupaten Sumedang, Jawa Barat 45372"
29,Bumi Perkemahan Cipacet,"Area perkemahan yang dirancang khusus untuk kegiatan luar ruangan seperti berkemah dan menjelajahi alam. Dikelilingi oleh hutan pinus, tempat ini menawarkan suasana yang sejuk dan tenang untuk para pencari petualangan.",-6.853647789888106,107.77265119446012,"Genteng, Kec. Sukasari, Kabupaten Sumedang, Jawa Barat 45366"
30,Bumi Perkemahan Pajaten,"Sebuah area perkemahan di Desa Kebonkalapa yang sering digunakan untuk kegiatan Pramuka seperti Jambore Ranting, menawarkan pengalaman berkemah di alam terbuka yang asri.",-6.84402291814145,107.95812774900205,"Cibolang, Kebonkalapa, Kec. Cisarua, Kabupaten Sumedang, Jawa Barat 45355"
31,Bungkeng Rumah Makan,"Sebuah destinasi kuliner legendaris yang merupakan perintis tahu Sumedang sejak tahun 1917. Mengunjungi tempat ini bukan hanya untuk mencicipi tahu yang otentik, tetapi juga untuk merasakan bagian dari sejarah gastronomi Sumedang.",-6.839573719247448,107.92520345244066,"Jl. Mayor Abdurahman No.135, Kotakaler, Kec. Sumedang Utara, Kabupaten Sumedang, Jawa Barat 45621"
32,Cadas Pangeran Sumedang,"Ruas jalan bersejarah yang berkelok tajam dan dikelilingi tebing curam. Daya tarik utamanya bukan pada keindahan alam, melainkan pada kisah sejarah kelam di balik pembangunannya pada masa pemerintahan Daendels.",-6.882484001686692,107.85930233921432,"Jl. Nasional 5, Cijeruk, Kec. Pamulihan, Kabupaten Sumedang, Jawa Barat 45365"
33,Camp Area Bukit Galau,"Bukit Galau, merupakan objek wisata alam camping ground yang menyajikan panorama alam layaknya di atas awan. Meski namanya Bukit Galau, namun kenyataannya, objek wisata alam ini menjadi lokasi yang tepat untuk menghilangkan penat. Bukit Galau berlokasi di ujung Sumedang bagian Barat. Tepatnya, di Kampung Telang, Desa Sindulang, Kecamatan Cimanggung, Kabupaten Sumedang, Jawa Barat. Dari Pasar Parakanmuncang, Cimanggung, Bukit Galau bisa ditempuh dengan jarak perjalanan kurang lebih 45 menit. Wisatawan dari arah Sumedang, bisa mengikuti akses jalan melalui Parakanmuncang. Kemudian masuk ke wilayah Tegalmanggung dan tiba di lokasi yaitu di Desa Sindulang. Setibanya di lokasi, wisatawan bisa memarkir kendaraannya di tempat yang telah pengelola sediakan. Akan tetapi, untuk menempuh titik lokasi, dari tempat parkir kendaraan tersebut, wisatawan harus menempuh perjalan dengan berjalan kaki. Dengan waktu tempuh sekitar 10 menit.",-6.952107079794257,107.88841792320984,"Sindulang, Kec. Cimanggung, Kabupaten Sumedang, Jawa Barat 45364"
34,Camp Area Puncak Gunung Tampomas,Sebuah area perkemahan yang terletak di dalam hutan sejuk di kaki Gunung Tampomas. Lokasi ini menjadi tujuan favorit bagi para pendaki dan pencinta alam untuk bermalam dan merasakan suasana pegunungan yang asri,-6.764548983534205,107.960657092949,"Cibeureum Kulon, Kec. Cimalaka, Kabupaten Sumedang, Jawa Barat 45353"
35,Cekdam Ciantay,"Bendungan penahan sedimen kecil yang menawarkan suasana alam yang hening dan damai. Dikelilingi oleh pepohonan pinus, tempat ini menjadi lokasi yang ideal untuk bersantai dan melepaskan penat dari keramaian",-6.940427429032245,107.78301690265144,"Cikeruh, Kec. Jatinangor, Kabupaten Sumedang, Jawa Barat 45363"
36,Cibubut Campground,Sebuah lahan perkemahan yang secara spesifik ditujukan untuk kegiatan berkemah di alam terbuka,-6.946121930172723,107.99206664425118,"Jayamekar, Kec. Cibugel, Kabupaten Sumedang, Jawa Barat 45375"
37,Cisoka Eco Green Park,"Cisoka Eco Greenpark Sumedang menghadirkan pengalaman wisata alam yang menyegarkan dengan konsep ekowisata yang menonjolkan keindahan alam pedesaan. Pengunjung dapat menikmati suasana asri dan sejuk, jauh dari hiruk pikuk perkotaan. Area persawahan yang luas memberikan pemandangan yang menenangkan, dan berbagai spot foto yang instagramable siap diabadikan. Tempat ini sangat cocok bagi mereka yang mencari ketenangan dan ingin melepas penat.

Selain menikmati keindahan alam, Cisoka Eco Greenpark juga menawarkan berbagai aktivitas rekreasi yang ramah lingkungan. Area bermain anak-anak tersedia untuk keluarga yang ingin berlibur bersama, dan suasana pedesaan yang tenang menciptakan pengalaman yang nyaman. Untuk informasi lebih lanjut mengenai harga tiket masuk, jam operasional, dan fasilitas terbaru, disarankan untuk mencari informasi dari sumber resmi atau media sosial terkait.",-6.913525779615443,107.97952522063912,"Citengah Cisoka, Citengah, Kec. Sumedang Sel., Kabupaten Sumedang, Jawa Barat 45311"
38,CISOKA HILL,"Sebuah destinasi wisata keluarga yang memadukan keindahan alam hamparan perkebunan teh dengan berbagai wahana buatan. Tempat ini dirancang sebagai lokasi untuk berswafoto dengan banyak spot menarik seperti menara kincir angin, wahana perahu, dan sayap burung, serta dilengkapi saung untuk bersantai.",-6.932772226082793,107.97664158162104,"Jl. Perkebunan TH cisoka, Citengah, Kec. Sumedang Sel., Kabupaten Sumedang, Jawa Barat 45311"
39,Clover Leaf Café & Resto,"Kafe dan restoran berkonsep modern yang menawarkan suasana nyaman, estetik, dan Instagramable. Berlokasi di pusat kota, tempat ini cocok untuk bekerja atau acara keluarga, menyajikan menu hidangan Barat dan fusion dengan sentuhan lokal",-6.858941791409754,107.92239645504688,"Jl. P Jl. Prabu Geusan Ulun No.46, Regol Wetan, Kec. Sumedang Sel., Kabupaten Sumedang, Jawa Barat 45311"
40,Curug Buhud,"Dikenal sebagai ""Niagara versi mini"" karena aliran airnya yang melebar hingga 30 meter. Air terjun ini sangat mudah diakses karena terletak di tengah pemukiman penduduk tanpa perlu trekking, menjadikannya destinasi yang cocok untuk keluarga dan persinggahan singkat",-6.740478742913097,107.8881427497416,"Sukatani, Kec. Tanjungmedar, Kabupaten Sumedang, Jawa Barat 45354"
41,Curug Cinulang,"Curug Sindulang merupakan salah satu curug yang terkenal di wilayah Jawa Barat. Selain karena termasuk kategori curug yang tinggi dengan ketinggian sekitar 50 meter, juga curugnya bertipe ganda. Ada dua curug kembar berdampingan yang tinggi dan deras airnya sama. Letak curug ini berada di perbatasan Kabupaten Sumedang dengan Kabupaten Bandung. Walau demikian, secara administratif Curug Sindulang terletak di Desa Sindulang Kecamatan Cimanggung Kabupaten Sumedang. Untuk mengakses curug ini terbilang sangat mudah karena dapat dilalui oleh berbagai jenis kendaraan, baik roda dua maupun roda empat. Terutama dari arah Cicalengka. Dari jalan utama Bandung-Garut, saat memasuki Kilometer 11, daerah Cicalengka mengambil jalur kiri ketika ada plang penunjuk arah wisata Curug Cinulang (tepatnya di persimpangan Desa Cikopo). Dari papan penunjuk jalan tersebut, maju sekitar 3 kilometer ke arah timur menuju pintu gerbang masuk.",-6.962679640592479,107.881542398642,"Jl. Cicalengka Sindang Wangi No.km.07, Tanjungwangi, Kec. Cicalengka, Kabupaten Bandung, Jawa Barat 40395"
42,Curug Cipadayungan,"Cipadayungan merupakan permata tersembunyi di Kabupaten Sumedang, Jawa Barat, yang terkenal akan keindahan lanskap persawahan teraseringnya yang menghijau dan memukau. Kontur tanah berbukit di desa ini disulap menjadi hamparan sawah bertingkat yang tidak hanya berfungsi sebagai lahan pertanian, tetapi juga menciptakan panorama alam yang luar biasa. Udara di Cipadayungan terasa sejuk dan menyegarkan, menjadikannya tempat pelarian yang ideal dari hiruk pikuk kehidupan perkotaan.",-6.766897012486401,107.92991444080693,"Bangbayang, Padasari, Kec. Cimalaka, Kabupaten Sumedang, Jawa Barat 45353"
43,Curug Cipongkor Sumedang,"ebuah air terjun tersembunyi yang digambarkan memiliki keindahan bak ""kepingan surga jatuh ke bumi"". Lokasinya yang berada di antara ceruk tebing di hutan Gunung Tugu menawarkan suasana yang sangat asri dan alami, cocok bagi para petualang yang mencari ketenangan.",-6.860083983980522,107.8785176389431,"Ciherang, Cimareme, Kec. Sumedang Sel., Kabupaten Sumedang, Jawa Barat 45311"
44,Curug CIPUTRAWANGI,"Curug ini berada di gunung Tampomas. Nilai plus tersendiri untuk anda yang mendaki gunung ini, karena bisa menemukan air terjun yang indah. Beberapa jalur pendakian seperti jalur Narimbang, Cibeureum, dan Buahdua menjadi jalur favorit untuk pendaki. Jalur terbaik untuk menuju tempat ini adalah melalui jalur Narimbang, di perjalanan anda bisa menikmati keindahan Curug Ciputrawangi, yang menjadi salah satu tempat wisata di Sumedang yang sayang untuk dilewatkan.
Untuk sampai kesini, butuh perjuangan, trekking dengan kondisi medan yang menanjak berupa jalan setapak. Butuh fisik yang prima untuk menuju ke lokasi curug. Lokasi air terjun ini sendiri berada di dekat perbatasan antara Sumedang dengan Indramayu.",-6.751448938954328,107.98754854032128,"Ciputrawangi, Curug, Ciputrawangi Curug, Narimbang, Kec. Conggeang, Kabupaten Sumedang, Jawa Barat 45391"
45,Curug Cirengganis,"Merupakan air terjun yang masih sangat alami dan ""perawan"", terletak di Desa Cilembu. Daya tariknya adalah suasana murni dan perjalanan melintasi hutan pinus untuk mencapainya, menawarkan pengalaman alam yang jauh dari sentuhan komersial",-6.914488912757177,107.87438470821034,"Cimarias, Kec. Pamulihan, Kabupaten Sumedang, Jawa Barat"
46,Curug Gorobog,"Tempat wisata di Sumedang yang selanjutnya adalah sebuah ari terjun yang memiliki keindahan alam yang masih terjaga dengan baik. Nama air terjun atau curug ini adalah Curug Gorobog terletak di Desa Citengah, Kecamatan Sumedang Selatan, Kabupaten Sumedang, Provinsi Jawa Barat.
Air terjun yang indah ini berada di dalam hutan dan uniknya memiliki 3 tingkatan yang menambah eksotis air terjun ini.Air Terjun Cigorobog ini memiliki ketinggian sekitar 40 meter. Air yang mengalirnya tidak terlalu deras, namun sangat sejuk dan jernih. Jika berendam akan terasa menyejukkan badan. Di bagian paling bawahnya ada aliran sungai kecil yang bisa dipakai untuk bermain anak-anak. Jadi, tempat ini sangat cocok digunakan sebagai tempat wisata keluarga.
",-6.913349775594527,107.96078437236729,"Citengah, Kec. Sumedang Sel., Kabupaten Sumedang, Jawa Barat 45311"
47,Curug Haurlawang Toga,,-6.888090657523168,107.91214181442172,"Margamekar, Kec. Sumedang Sel., Kabupaten Sumedang, Jawa Barat"
48,Curug Pasirwangi,"Air terjun yang menjadi tujuan favorit warga setempat untuk liburan keluarga. Dengan tiket masuk yang sangat terjangkau, tempat ini menawarkan pemandangan indah dan suasana alami yang menenangkan, bahkan disebut cocok untuk meditasi",-6.814195526525455,107.87858843663238,"Sukamaju, Kec. Rancakalong, Kabupaten Sumedang, Jawa Barat 45361"
49,Curug Sabuk,"Destinasi bagi para petualang sejati, berupa air terjun setinggi 70 meter yang tersembunyi di dalam hutan Gunung Kareumbi. Untuk mencapainya, diperlukan trekking menantang selama 2-3 jam, yang akan terbayar dengan pemandangan megah dan suasana yang benar-benar liar",-6.926213821439378,107.90490957078164,"Margamekar, Kec. Sumedang Sel., Kabupaten Sumedang, Jawa Barat 45311"
50,Danau Biru Situ Cilembang,"Objek wisata yang satu ini berupa danau yang memiliki warna kebiruan dan bening sebening kristal, Situ Cilembang sendiriberada di Desa Hariang, Kec. Buahdua, Kab. Sumedang. Air situ atau danau ini seperti warna buatan padahal memang alami seperti itu adanya. Warna biru situ mungil ini merupakan pantulan warna langit yang diterjemahkan secara sempurna oleh air Situ Cilemang yang sama sekali belum terkontaminasi.

Tapi sangat disayangkan karena kita dilarang mandi mandi disini, karena dikhawatirkan akan mencemari air biru situ Cilembang ini. Selain itu, kita juga dilarang berkunjung ke mata air ini pada hari Selasa dan Jumat. Meskipun demikian, wisatawan terus berdatangan untuk melihat keindahan situ ini dari dekat, karena penasaran dengan keindahan dari gambar yang beredar di media sosial.",-6.706132884748672,107.91001281825486,"Hariang, Kec. Buahdua, Kabupaten Sumedang, Jawa Barat 45392"
51,Danau Cekdam Cimarias,"Sebuah danau buatan tersembunyi di lereng Gunung Kareumbi yang dibangun pada era Presiden Soeharto. Dikelilingi pepohonan pinus, tempat ini menawarkan suasana yang sangat sejuk dan tenang, namun akses menuju lokasi cukup menantang dan berbatu",-6.9070168284257285,107.86688653677692,"3Cimarias, Kec. Pamulihan, Kabupaten Sumedang, Jawa Barat 45365"
52,Dapur Seafood,Tempat makan sederhana yang dikenal menyajikan aneka hidangan laut lezat dengan harga yang terjangkau. Restoran ini menjadi pilihan populer bagi warga lokal yang mencari cita rasa otentik tanpa harus menguras kantong.,-6.711821801559644,108.73845193822793,"Jl. Prabu Geusan Ulun No.54, Regol Wetan, Kec. Sumedang Sel., Kabupaten Sumedang, Jawa Barat 45311"
53,Desa Wisata Karedok,"Masyarakat Desa Karedok memiliki kerajinan tangan yang dibuat dengan memanfaatkan sumberdaya alam berupa bambu dan batok kelapa. Sedangkan Desa Karedok memiliki lahan pertanian yang subur ada beberapa larangan adat yang tidak boleh di lakukan dalam bidang pertanian yaitu menanam tembakau, bawang merah, dan singkong. Desa Karedok memiliki upacara tradisional yang berkaitan dengan senjata, yaitu upacara Ngarot / Tutup Buku Guar Bumi. Acara ngarot ini dilaksanakan pada saat panen raya, dan sudah berlangsung dari tahun 1900-an sampai sekarang. Adanya upacara-upacara adat tersebut turut pula menghidupkan kesenian tradisional yang biasanya diikutsertakan dalam penyelenggaraan upacara ngarot, seperti kesenian Tayuban, Gondang, dan Kuda Lumping, kecuali Wayang Golek atau Wayang Kulit serta Tari Topeng yang tidak boleh dipergelarkan atau dipertunjukkan dalam upacara adat, demikian juga dalam pesta-pesta atau kegiatan lain di luar penyelenggaraan upacara adat.",-6.832729486873904,108.1030688209099,"Jl. Sasak Karedok, Karedok, Kec. Jatigede, Kabupaten Sumedang, Jawa Barat 45377"
54,DESA WISATA PASIRNANJUNG GEULIS,"Sebuah desa rintisan wisata di Kecamatan Cimanggung yang berada di lereng pegunungan Kareumbi. Daya tarik utamanya adalah panorama alam pedesaan yang indah dan menyegarkan, dengan pemandangan ke arah Bandung dari ketinggian, yang cocok untuk liburan keluarga.",-6.948531233261313,107.84304791409969,"Pasirnanjung, Kec. Cimanggung, Kabupaten Sumedang, Jawa Barat 45364"
55,Desa Wisata Tradisi BudayaTarawangsa dan Ngalaksa,"Sebuah desa wisata budaya di Rancakalong yang berpusat pada pelestarian tradisi Ngalaksa dan kesenian Tarawangsa, yang telah ditetapkan sebagai Warisan Budaya Tak Benda. Pengunjung dapat menyaksikan upacara adat syukuran hasil panen yang unik diiringi alunan musik tradisional yang khas",-6.83646950111287,107.84071090600963,"Rancakalong, Kec. Rancakalong, Kabupaten Sumedang, Jawa Barat 45361"
56,DEWILIPA,"Wisata Dewilipa di Desa Cijeler Kec. Situraja Kab. Sumedang salah satu objek wisata pilihan bagi para traveler. Disana, menyuguhkan spot foto pemandangan alam yang eksotis. Khususnya bagi para penikmat kopi diwaktu senja atau bisa disebut pecinta camping. Dewilipa memiliki konsep dasar yang masuk kategori ekowisata edukatif.",-6.852220107862877,107.9888449676569,"Cijeler, Kec. Situraja, Kabupaten Sumedang, Jawa Barat 45356"
57,Empang - Gedung Negara Sumedang,"Sebuah kolam besar bersejarah yang terletak di belakang Gedung Negara Sumedang dan telah dikembangkan menjadi ""Empang Heritage Zone"". Awalnya berfungsi sebagai tempat rekreasi para bupati, kini menjadi ruang publik populer untuk bersantai, berfoto, dan menaiki sepeda air.",-6.862006206553099,107.92188546681756,"Gang Empang Sel Jl. Empang, Regol Wetan, Kec. Sumedang Sel., Kabupaten Sumedang, Jawa Barat 45311"
58,Forest Walk,"Wahana rekreasi baru berupa jembatan kayu yang dibangun di tengah kawasan hutan di sekitar Bendungan Jatigede, seperti di Taman Seribu Cahaya. Fasilitas ini memungkinkan pengunjung untuk berjalan-jalan santai di antara pepohonan sambil menikmati pemandangan waduk dari ketinggian",-6.871824412938915,108.0645895566844,"Pakualam, Kec. Darmaraja, Kabupaten Sumedang, Jawa Barat"
59,"Geotheater Rancakalong, Kab. Sumedang","Geotheater Rancakalong di Sumedang adalah tempat wisata budaya dan alam yang menampilkan seni Sunda dan pemandangan indah. Tempat ini punya bangunan utama untuk pertunjukan, spot foto menarik, fasilitas pendukung, dan sering mengadakan pertunjukan budaya. Keberadaannya juga membantu ekonomi warga sekitar. Saat ini, Geotheater bekerja sama dengan ISBI Bandung untuk dikembangkan menjadi pusat wisata edukasi budaya Sunda.",-6.8339259242024575,107.86182119162682,"Gandeweh, Sukahayu, Kec. Rancakalong, Kabupaten Sumedang, Jawa Barat 45361"
60,Gn. Kareumbi,"Kawasan konservasi alam luas yang dikenal sebagai Taman Buru Gunung Masigit Kareumbi, terletak di perbatasan Sumedang, Bandung, dan Garut. Tempat ini menjadi destinasi ideal untuk berbagai kegiatan petualangan seperti jungle trekking, berkemah, dan bersepeda, serta memiliki fasilitas unik seperti penangkaran rusa dan rumah pohon",-6.930772258604567,107.8775332809934,"Sindanggalih, Kec. Cimanggung, Kabupaten Sumedang, Jawa Barat"
61,Gn. Kerenceng,"Gunung setinggi 1.754 mdpl di perbatasan Sumedang dan Bandung yang menjadi destinasi favorit bagi pendaki pemula. Jalur pendakiannya menawarkan tantangan yang aman dengan pemandangan alam yang indah, dan puncaknya merupakan lokasi populer untuk berkemah dan menikmati matahari terbit",-6.932972614638748,107.8857211071085,"Sukajaya, Kec. Sumedang Sel., Kabupaten Sumedang, Jawa Barat"
62,Gn. Lingga,"Batu Dua Gunung Lingga merupakan tempat wisata alam hits di Sumedang yang kini ramai dan mulai banyak dikunjungi oleh para wisatawan di Indonesia. Tempat ini cocok bagi kamu yang ingin liburan anti-mainstream bersama dengan teman atau keluarga. Di Batu Dua Gunung Lingga kalian bisa melakukan banyak hal seru dan menantang mulai dari menikmati alam hingga menjelajahi alam dengan Paralayang.

Daya tarik dan hal seru yang bisa kalian lakukan: Melihat Pemandangan Waduk Jatigede dan Puncak Damar Letak dari tempat wisata ini yang berada di atas ketinggian menjadikan para pengunjung yang berlibur dapat dengan jelas melihat keindahan alam berupa pemandangan indah Waduk Jatigede dan Puncak Damar, Batu Dua Lingga ini memiliki ketinggian hanya 930 mdpl. Spot Foto Indah dan Instagramable Tenang saja bagi kalian pecinta keindahan alam yang gemar berfoto disini kalian akan dengan mudah menemukan spot foto yang indah dan Instagramable, berkunjung ke tempat wisata kurang afdol rasanya jika tidak mengabaikan momen liburan, dengan latar belakang langit biru dan hamparan rerumputan hijau menciptakan keindahan alami yang sayang untuk dilewatkan. Paralayang Sesuai dengan namanya disini kamu bisa liburan anti mainstream yakni mengelilingi sekitar Gunung Batu Lingga Sumedang, naik paralayang mengelilingi tempat wisata ini akan menjadi pengalaman indah dan tak terlupakan bagi siapa saja.",-6.903479993081887,108.01416562445074,"Linggajaya, Kec. Cisitu, Kabupaten Sumedang, Jawa Barat"
63,Gunung Geulis,"Sebuah gunung setinggi 1.281 mdpl yang berlokasi di perbatasan Jatinangor, Cimanggung, dan Tanjungsari, cocok untuk pendaki pemula. Dari puncaknya, pengunjung dapat menikmati pemandangan panorama yang luas, dan di area puncak terdapat beberapa makam keramat yang sering dikunjungi peziarah.",-6.931471204273437,107.81095386840722,"Jatiroke, Kec. Jatinangor, Kabupaten Sumedang, Jawa Barat"
64,Hanjuang Kutamaya,"Sebuah situs bersejarah yang terkait dengan Pohon Hanjuang, sering dikunjungi oleh peziarah",-6.848588798120818,107.90769364057104,"Padasuka, Kec. Sumedang Utara, Kabupaten Sumedang, Jawa Barat 45621"
65,Ikan Bakar Citengah,"Restoran yang terkenal dengan hidangan ikan bakarnya, menawarkan pengalaman bersantap di tengah suasana alam Citengah yang sejuk dan asri.",-6.913340664969144,107.95208017946702,"Citengah, Kec. Sumedang Sel., Kabupaten Sumedang, Jawa Barat 45311"
66,Jans Park,"Jans Park Jatinangor atau Jatinangor National Flower Park merupakan salah satu destinasi wisata baru di Jatinangor Kabupaten Sumedang atau lebih tepatnya di Jatinangor Nasional Park, Desa Cileles, Kecamatan Jatinangor, Kabupaten Sumedang, Jawa Barat. Tempat wisata ini baru saja dibuka pada tanggal 18 November 2022. Memiliki luas 7.5 hektar Jatinangor National Park (Jans Park) juga menyuguhkan pemandangan menakjubkan pegunungan Manglayang sebagai kelebihannya.

Jatinangor National Flower Park menyajikan berbagai koleksi bunga dan juga memiliki banyak spot foto instagramable yang cocok bagi mereka yang suka berfoto. Selain itu Jans Park juga menyediakan fasilitas lengkap mulai dari Mushola, Food Court, Area Parkir, Toilet, Wahana dan lainnya.",-6.918624572387564,107.76968532396106,"Hegarmanah, Kec. Jatinangor, Kabupaten Sumedang, Jawa Barat 45363"
67,Jatinangor National Golf & Resort,"Padang golf Bandung Giri Gahana terletak di dataran tinggi Jatinangor yang memiliki ketinggian 900 mdpl. Maka tak heran jika para golfer akan disajikan pemandangan pegunungan yang indah, fairway yang luas, hijaunya rumput Bermuda dan Brent yang luas serta udara yang sejuk.
Lapangan golf di Jatiangor yang dirancang oleh Michael Coates dari Austro Asian Golf & Association ini memiliki panjang sekitar 7.176 yards jika diukur dari Profesional Tees serta 18 holes dan par 72. Bandung Giri Gahana Golf menawarkan 2 pertandingan yakni 9 holes di bagian depan clubhouse yang disebut Giri dan 9 holes di bagian belakang yang disebut dengan Gahana. Yang menarik dari tempat ini adalah tersedianya fasilitas resort berbintang 4 dengan berbagai fasilitas kelas dunia. Sehingga Wisatawan tidak hanya bisa bermain golf saja tapi juga bisa berekreasi bersama keluarga.",-6.911236506958216,107.76291477075443,"Cibeusi, Kec. Jatinangor, Kabupaten Sumedang, Jawa Barat 45363"
68,Kadaka Hill Agrowisata,"Kadaka Hill adalah destinasi wisata perbukitan yang menawarkan pemandangan alam yang indah dan udara yang sejuk. Tempat ini cocok untuk kegiatan hiking, berkemah, dan menikmati matahari terbit atau terbenam dengan panorama yang memukau.

Kawasan wisata ini menyediakan berbagai fasilitas untuk pengunjung, termasuk jalur pendakian yang menantang namun aman untuk berbagai tingkat kemampuan, area perkemahan yang luas dengan pemandangan alam yang hijau, serta spot foto dengan pemandangan alam yang instagramable. Pengunjung dapat menikmati aktivitas outdoor seperti trekking, camping, atau sekadar bersantai sambil menikmati keindahan alam.

Kadaka Hill terletak di Desa Kadaka, Kecamatan Tanjungsari, Kabupaten Sumedang, Jawa Barat. Dengan lokasi yang mudah diakses dan pemandangan yang menakjubkan, tempat ini menjadi pilihan yang tepat bagi pecinta alam dan fotografi yang ingin menangkap momen indah di ketinggian.",-6.857835305063015,107.80248650539365,"Cikawung.KM.5, Kadakajaya, Kec. Tanjungsari, Jawa, Barat, Kabupaten Sumedang, Jawa Barat 45362"
69,Kampoeng Jarami,"Kampoeng Jarami terletak di Tanjungsari, Kabupaten Sumedang. Jarak dari Alun-Alun Tanjungsari kurang lebih 1.9 km. Banyak fasilitas yang tersedia di objek wisata ini, seperti kolam renang, Gazebo, Taman Bunga dan foodcourt. Untuk yang senang mengabadikan foto. Tempat ini sangat cocok. Terdapat beberapa spot foto yang memang disediakan untuk pengunjung.",-6.8876192997456185,107.8026718310715,"Jl. Karanganyar No.9, Pasigaran, Kec. Tanjungsari, Kabupaten Sumedang, Jawa Barat 45362"
70,Kampoeng Ladang,"Pusat wisata budaya di puncak bukit yang memperkenalkan tradisi pertanian Sunda, di mana pengunjung dapat berinteraksi langsung dengan kegiatan bertani sambil menikmati panorama kota Sumedang.",-6.871609704196099,107.89101255036654,"Lebak Huni Kareumbi, Margalaksana, Kec. Sumedang Sel., Kabupaten Sumedang, Jawa Barat 45311"
71,Kampung Buricak Burinong,"Buricak Burinong adalah destinasi wisata yang seru dikunjungi bersama keluarga. Daya tarik utama tempat wisata ini berupa pemandangan waduk yang luas dan menyegarkan. Dikarenakan menghadap langsung ke Waduk Jatigede, tentu saja daya tarik utama kampung wisata ini adalah pemandangan waduk tersebut. Selain itu, ada pula panorama pegunungan dan hutan pinus yang mengelilingi waduk. Pemandangan alam yang memesona menjadikan wisata ini layak untuk dikunjungi. Pengunjung juga dapat menelusuri Forest Walk, jembatan kayu setinggi 2 meter yang terletak di tengah hutan pinus. Melalui spot ini, pengunjung bisa melihat panorama alam dari ketinggian. Hutan pinus di sekitar Buricak Burinong tumbuh subur dan tentunya memanjakan mata. Meskipun tergolong wisata hidden gem, namun fasilitas yang disediakan tempat ini sangat memadai. Beberapa fasilitas yang bisa diguanakan yaitu area parkir, tempat makan, musala, toilet, hingga sewa perahu.",-6.871573746797364,108.0694533561892,"Dsn. Cisema, Pakualam, Kec. Darmaraja, Kabupaten Sumedang, Jawa Barat 45372"
72,Kampung Cigumentong,"Sebuah kampung adat terpencil yang melestarikan tradisi lokal seperti hajat buruan (syukuran kampung) dan ngagogo (menangkap ikan dengan tangan), menawarkan pengalaman kehidupan pedesaan yang otentik.",-6.947495085328666,107.92339500576216,"Sindulang, Kec. Cimanggung, Kabupaten Sumedang, Jawa Barat 45364"
73,Kampung Karuhun ECO Green Park Sumedang,"Kampung Karuhun merupakan sebuah kawasan wisata terpadu yang berada di wilayah Desa Citengah Kecamatan Sumedang Selatan. Lokasinya sekitar tujuh kilometer dari pusat kota Sumedang ke arah selatan. Kawasan Kampung Karuhun berupa pesawahan berbukit dan lingkungan hutan tropis yang masih terjaga keasriannya.

Di kawasan ini terdapat aliran sungai Cihonje dengan airnya yang jernih mengalir melewati bebatuan. Di bagian hulunya terdapat air terjun Cigorobog yang akan memikat pengunjung. Di sebelah atasnya lagi terdapat hamparan kebun teh Margawindu yang dikelilingi kawasan hutan lindung pada ketinggian 1.200 meter di atas permukaan laut. Dengan lingkungan alam yang masih hijau, Kampung Karuhun menawarkan wisata terpadu dengan konsep eco green park. Sehingga pengunjung akan disuguhkan nuansa alam yang sangat kental dan disediakan berbagai macam bibit pohon yang bisa ditanam di daerah konservasi atau bisa dibawa pulang untuk ditanam sendiri. Di kawasan hutan lindungnya sendiri masih terdapat berbagai jenis satwa yang dilindungi seperti Elang, Lutung, Surili, Kera, berbagai jenis burung, Landak serta masih terdapat kucing besar sejenis Lodaya.

Objek wisata ini bisa diakses menggunakan berbagai jenis kendaraan baik roda dua maupun roda empat. Adapun untuk kendaraan umum menggunakan Angkutan Umum Pedesaan Cipameungpeuk - Citengah. Dilanjut dengan jalan kaki atau menggunakan Ojek. Lokasinya sebelah selatan kota Sumedang dengan jarak 7 km.",-6.913514625511284,107.95253642544868,"Jl. Pagarbetis, Citengah, Kec. Sumedang Sel., Kabupaten Sumedang, Jawa Barat 45311"
74,Kampung Kawangi,"Restoran berkonsep rumah panggung kuno yang menyajikan masakan Sunda otentik, di mana pengunjung dapat merasakan suasana tempo dulu dengan dapur tradisional (hawu) dan pemandangan hamparan sawah.",-6.88327551789001,107.80242406620836,"Jl. Karanganyar, Pasigaran, Kec. Tanjungsari, Kabupaten Sumedang, Jawa Barat 45362"
75,Kampung kreatif bbc,Sebuah desa wisata yang menawarkan kegiatan rekreasi unik seperti mini river tubing di saluran irigasi dan wisata edukasi di peternakan sapi perah.,-6.79397050057235,107.90187872146446,"Babakan Caringin, Cipanas, Kec. Tanjungkerta, Kabupaten Sumedang, Jawa Barat 45354"
76,KAMPUNG USMAN,Tempat ini menawarkan rekreasi keluarga seperti berenang dan bermain di kolam yang terletak di tengah hutan pinus yang asri.,-6.889290907539178,107.92430728144863,"Cijambe, Cipameungpeuk, Kec. Sumedang Sel., Kabupaten Sumedang, Jawa Barat"
77,Kampung Wisata Pangjujugan,"Kampung Wisata Pangjugjugan di Sumedang menawarkan suasana menenangkan. Objek wisata ini berada di lingkungan pedesaan atau tepatnya di Dusun Babakan Anjun, Desa Cilembu, Kecamatan Pamulihan, Kabupaten Sumedang, Jawa Barat. Berada di bawah kaki gunung Kareumbi, Objek wisata ini menyuguhkan panorama alam pegunungan, hutan pinus dan perkebunan. Sejumlah fasilitas ada di objek wisata ini mulai dari kolam renang lengkap dengan waterboom, area permainan anak, taman hijau berumput, perkebunan, restoran, penginapan, area camping, aula panggung, tempat parkir, toilet, musala dan fasilitas lainnya.",-6.916198453299046,107.8471526598028,"Dusun Babakan Anjun No.RT. 3/10, Cilembu, Kec. Pamulihan, Kabupaten Sumedang, Jawa Barat 45365"
78,Kancah Nangkub Bike Park,"Sebuah taman sepeda seluas 23 hektar yang dikelola oleh warga setempat, menyediakan berbagai lintasan menantang seperti downhill dan single track bagi para penggemar sepeda gunung.",-6.85720630465841,107.94650129223596,"Cikondang, Kec. Ganeas, Kabupaten Sumedang, Jawa Barat 45311"
79,Kantin Jatinangor,"Dikenal dengan sebutan ""Kanjat"", ini adalah kantin legendaris yang populer di kalangan mahasiswa Unpad karena menyajikan puluhan jenis masakan Jawa-Sunda secara prasmanan dengan harga yang sangat terjangkau.",-6.933029972791303,107.77555710860442,"Jl. Raya Jatinangor No.194, Cikeruh, Kec. Jatinangor, Kabupaten Sumedang, Jawa Barat 45363"
80,Kebun Durian Sangiang Bedil,"Kebun Durian Sangiang Bedil adalah sebuah destinasi wisata alam yang terletak di Sumedang, Jawa Barat. Daya tarik utama tempat ini tentu saja adalah buah durian.

Selain bisa menikmati durian langsung di kebunnya, tempat ini juga dilengkapi dengan berbagai fasilitas lain seperti Kolam renang dan Jacuzzi, Glamping/Villa, Cafe dan Resto, Kids zone, Spot foto yang menarik.

Untuk masuk ke Kebun Durian Sangiang Bedil, harga tiket masuknya cukup terjangkau, yaitu sekitar Rp10.000. Tempat ini cocok untuk liburan keluarga yang ingin menikmati suasana pedesaan dan tentunya mencicipi durian segar.",-6.925867572495058,108.04726960780404,"Cipeuteuy, Kec. Darmaraja, Kabupaten Sumedang, Jawa Barat"
81,Kerajaan Sumedang Larang,"Istana dan museum bersejarah yang menjadi pusat pelestarian warisan dan pusaka Kerajaan Sumedang Larang, berfungsi sebagai pusat aktif kegiatan budaya Sunda.",-6.847501388647045,107.91059726349252,"Kotakulon, Kec. Sumedang Sel., Kabupaten Sumedang, Jawa Barat 45311"
82,Keramat Embah Gabug,"Makam keramat Marongge paling terkenal dengan kekuatan asihan atau peletnya. Para pengunjung yang memiliki maksud tersebut biasanya menjalankan beberapa tahapan ritual, di antaranya mandi kembang, bertawasul, minum air doa, lalu mandi di aliran Sungai Cilutung Sumedang sambil melarungkan celana dalam yang dipakainya saat itu. Makam keramatnya sendiri terletak di dalam sebuah bangunan yang berada di tengah-tengah Tanah Pemakaman Umum (TPU) yang terbilang cukup tua di Marongge. Itu dapat terlihat dari bentuk beberapa nisan dan tatanan kuburannya yang sudah berantakan.",-6.7941440809709785,108.1577081133199,"Marongge, Kec. Tomo, Kabupaten Sumedang, Jawa Barat 45382"
83,khalana villa,"Sebuah destinasi penginapan dan restoran mewah yang menawarkan suasana ""rasa Ubud"" di Sumedang, terbuka untuk umum yang ingin bersantap atau berfoto dengan membayar tiket masuk.",-6.911377527109129,107.9651178272609,"Belakang Kantor, Citengah, Kec. Sumedang Sel., Kabupaten Sumedang, Jawa Barat 45311"
84,Kiarapayung Camp,"Area perkemahan yang sangat luas di kaki Gunung Manglayang, terkenal sebagai lokasi penyelenggaraan acara besar seperti Jambore Pramuka tingkat nasional dan cocok untuk kegiatan outbound atau berkemah keluarga.",-6.89688520375495,107.76494998934784,"Kiarapayung, Kec. Sukasari, Kabupaten Sumedang, Jawa Barat 45363"
85,Kiarapayung Green Park,"Udara disekitar wisata Kiarapayung cukup sejuk karena daerah ini berada di kaki Gunung Manglayang (1.650 Mdpl) dan berhadapan langsung kerah timur dengan Gunung Geulis (1.281 Mdpl). Maka tempat ini memang sangat pas buat mereka yang sedang mencari pemandangan alam, olahraga sepeda gunung (mountain bike), piknik bersama keluarga, camping ground, trekking, photo hunting, atau bikin acara outing yang biasa digelar oleh perusahaan. Disana ada banyak lapangan besar yang bisa dipilih untuk melakukan berbagai aktifitas outdoor. Nama Kiarapayung berasal dari bahasa Sunda, yaitu kiara (pohon) dan payung (bernaung).",-6.896318521174102,107.76245746337788,"Sindangsari, Kec. Sukasari, Kabupaten Sumedang, Jawa Barat 45366"
86,Kolam pemancingan PESONA GUNUNG MANIK,Sebuah tempat pemancingan di kawasan Tanjungsari yang menawarkan ketenangan sambil menikmati pemandangan gunung yang indah sebagai daya tarik utamanya.,-6.907991416997366,107.82186183682464,"Kolam pemancingan pesona gunung manik, Marga Jaya, Kec. Tanjungsari, Kabupaten Sumedang, Jawa Barat 45362"
87,Kolam renang bulakan highland park,"Fasilitas kolam renang yang berlokasi di dataran tinggi, menawarkan suasana rekreasi air dengan udara yang lebih sejuk dan segar.",-6.943111625563289,107.83933328341016,"Sindanggalih, Kec. Cimanggung, Kabupaten Sumedang, Jawa Barat 45364"
88,Kolam Renang Cigirang,"Wisata Mata Air Cigirang, terletak di bawah kaki Gunung Tampomas, tepatnya di Desa Cilangkap, Kecamatan Buahdua. Objek wisata ini bernuansa alam dan memiliki 2 kolam renang yang airnya bersumber dari mata air Gunung Tampomas. Sekeliling wilayah Kolam Renang menyajikan pemandangan yang menghijau dan rimbunnya pepohonan. Sehingga sangat cocok dijadikan tempat berwisata keluarga: berenang sambil menikmati sejuknya suasana alam. Kolam renang yang tersedia terbagi ke dalam tiga jenis kedalaman yaitu kolam renang dengan kedalaman satu meter, 1,4 meter dan kedalaman 2,4 meter. Sehingga pengunjung bisa memilih, ingin berenang di kedalaman berapa.Selain fasilitas kolam renang, di Kolam Renang Cigirang ini juga tersedia fasilitas kolam terapi ikan. Kolam terapi ikan ini bisa digunakan sebagai tempat pengobatan dan untuk mengangkat sel-sel kulit yang mati pada kaki. Pengunjung bisa merendam kakinya di kolam terapi ikan ini untuk kemudian digigit-gigit oleh ikan yang terdapat di kolam ikannya.",-6.7263191787134735,107.97980779912017,"Cilangkap, Kec. Buahdua, Kabupaten Sumedang, Jawa Barat 45392"
89,Kolam Renang Cipanteneun,"Dikenal juga sebagai Kolam Renang Wijaya Kusuma, ini adalah lokasi wisata air legendaris yang telah dikembangkan sejak tahun 2003 dan menjadi sarana hiburan populer bagi masyarakat Sumedang.",-6.807604799639464,107.94484213505883,"Jl. Cipanteuneun, Licin, Kec. Cimalaka, Kabupaten Sumedang, Jawa Barat 45353"
90,Kolam Renang Ranca Tirta,"Sebuah fasilitas rekreasi air yang berlokasi di seberang Wana Wisata Kampoeng Ciherang, menjadi pilihan untuk berenang dan bermain air bagi keluarga.",-6.950816032134711,108.1188637350359,"Jl. Ciranca, Sawah Lamping - Jatinunggal, Tarikolot, Jatinunggal, Tarikolot, Kec. Jatinunggal, Kabupaten Sumedang, Jawa Barat 45376"
91,Kolam Renang Wijaya Kusuma,"Wisata air atau kolam renang Wijaya Kusuma merupakan sebuah lokasi wisata yang berada di kawasan Cipanteneun. Wisata air ini berada di sebelah selatan wana wisata Cipanteneun yang dikelilingi oleh tiga aliran sungai kecil berbentuk segitiga. Wisata air ini mulai dikembangkan semenjak tahun 2003. Saat ini fasilitas yang ada di wisata air Wijaya Kusuma diantaranya adalah water boom, empat buah kolam renang yang diperuntukan untuk empat jenis pengunjung yaitu untuk anak TK, SD, SMP dan SMA. Satu lagi fasilitas yang akan memanjakan pengungjung wisata air Wijaya Kusuma yaitu kolam terapi ikan. Kolam terapi ikan ini mulai dibangun semenjak tahun 2010 dan terdapat tiga buah kolam terapi. Dengan adanya kolam terapi ikan ini, pengunjung wisata air Wijaya Kusuma semakin banyak terutama di hari libur. Bukan hanya pengunjung lokal dari wilayah Kabupaten Sumedang, namun juga dari luar wilayah Sumedang seperti Indramayu, Subang, Padalarang, Bandung, Bekasi dan kota-kota besar lainnya. Terapi ikan di kolam terapi ini bisa menyembuhkan berbagai penyakit.",-6.80875606176529,107.94513417651844,"Galudra, Kec. Cimalaka, Kabupaten Sumedang, Jawa Barat 45353"
92,Kolam Renang Yadika Tanjungsari,Fasilitas kolam renang yang menjadi bagian dari kompleks sekolah Yadika di Tanjungsari dan terbuka untuk umum sebagai sarana rekreasi dan olahraga.,-6.883598139885113,107.90936746397384,"Jl. Raya Tanjungsari No.394, Jatisari, Kec. Tanjungsari, Kabupaten Sumedang, Jawa Barat 45362"
93,Komplek Pemakaman Cut Nyak Dien (belum ada review),"Walaupun bentuknya kecil dan tidak menyerupai gunung (bisa lebih cocok disebut bukit), namun sudah dikenal dengan nama gunung. Tepatnya dikenal dengan nama Gunung Puyuh. Gunung Puyuh merupakan suatu tempat yang digunakan sebagai kompleks pemakaman bagi para bupati keturunan Prabu Geusan Ulun beserta keluarganya. Jadi Gunung Puyuh merupakan kompleks pemakaman khusus bagi keturunan kerajaan Sumedang Larang. Yang kemudian dijadikan cagar budaya oleh Pemerintah Daerah Kabupaten Sumedang. Sehingga bagi keturunan Sumedang Larang yang ingin berziarah ke leluhurnya, tidak perlu ke mana-mana lagi. Menurut data yang dihimpun oleh Carita Ki Sunda, dari mulai makam Pangeran Rangga Gempol ke II Koesoemahdinata IV ada di sini. Gunung Puyuh dibagi ke dalam beberapa kompleks pemakaman. Ada kompleks A sampai kompleks Z. Berkaitan dengan data nama jenazah yang dimakamkan di Gunung Puyuh, ada di pihak juru kunci Gunung Puyuh. Walaupun bentuknya masih tulisan tangan, namun masih bisa dijadikan acuan mengenai data makam yang ada di sini. Selain makam keturunan Sumedang Larang, ada juga makam pahlawan nasional yang berasal dari Aceh yaitu Cut Nyak Dien. Beliau dimakamkan di Gunung Puyuh ini.

Lokasinya yang berdekatan dengan pusat kota Sumedang, memudahkan sekali dalam mengaksesnya. Jaraknya dari Alun-alun Sumedang sekitar 500 meter ke barat daya. Jalan yang dilaluinya juga bagus, jalan besar beraspal.",-6.8629270704808345,107.91709319102092,"4Sukajaya, Kec. Sumedang Sel., Kabupaten Sumedang, Jawa Barat 45311"
94,Kuliner Si Mbah,"Merujuk pada konsep rumah makan yang menyajikan masakan rumahan otentik dengan resep tradisional warisan turun-temurun (""resep si mbah""), menawarkan cita rasa khas Sunda.",-6.948338278855738,107.76242869017852,"Jl. Raya Bandung - Garut, Cipacing, Kec. Jatinangor, Kabupaten Sumedang, Jawa Barat 45363"
95,Lahuta Mulung Layung,"Sebuah destinasi wisata kreatif yang dikembangkan secara swadaya oleh masyarakat di lahan perkebunan bambu, dirancang khusus sebagai tempat untuk menikmati keindahan matahari terbenam (""mulung layung"").",-6.790982941057904,107.90087719550132,"JL Desa, Cipanas, Kec. Tanjungkerta, Kabupaten Sumedang, Jawa Barat 45354"
96,LANDING ZONE TOGA,"Merupakan area pendaratan utama untuk kegiatan olahraga dirgantara seperti paralayang dan gantole di kawasan wisata Toga Hill, yang dikenal sebagai salah satu spot paralayang terbaik di Jawa Barat.",-6.871968994825773,107.91972750484642,"Sukajaya, Kec. Sumedang Sel., Kabupaten Sumedang, Jawa Barat 45311"
97,Lapak mancing Ade Gomar Cinawing,Sebuah kolam pemancingan lokal yang populer di kalangan penghobi mancing di daerah Cinawing.,-6.887647312036332,108.07535521331158,"Pakualam, Kec. Darmaraja, Kabupaten Sumedang, Jawa Barat 45372"
98,Leuweung Tiis,"Jans Park Jatinangor atau Jatinangor National Flower Park merupakan salah satu destinasi wisata baru di Jatinangor Kabupaten Sumedang atau lebih tepatnya di Jatinangor Nasional Park, Desa Cileles, Kecamatan Jatinangor, Kabupaten Sumedang, Jawa Barat. Tempat wisata ini baru saja dibuka pada tanggal 18 November 2022. Memiliki luas 7.5 hektar Jatinangor National Park (Jans Park) juga menyuguhkan pemandangan menakjubkan pegunungan Manglayang sebagai kelebihannya.
Jatinangor National Flower Park menyajikan berbagai koleksi bunga dan juga memiliki banyak spot foto instagramable yang cocok bagi mereka yang suka berfoto. Selain itu Jans Park juga menyediakan fasilitas lengkap mulai dari Mushola, Food Court, Area Parkir, Toilet, Wahana dan lainnya.",-6.805609223647935,107.90786713400536,"Trunamanggala, Kec. Cimalaka, Kabupaten Sumedang, Jawa Barat 45353"
99,LIMASAN's FINEST - CAFÉ,"Kafe berkonsep modern dengan sentuhan arsitektur tradisional Jawa ""Limasan"", menyajikan berbagai hidangan seperti Nasi Goreng Cikur dan Nasi Liwet.",-6.846762487101115,107.91696179844185,"Jl. Bojong Ragadiem No.1A, RT.03 / RW07, Kotakulon, Kec. Sumedang Sel., Kabupaten Sumedang, Jawa Barat 45312"
100,Lingga Sumedang,"Sebuah monumen tugu peringatan yang terletak di tengah Alun-alun Sumedang, dibangun untuk mengenang jasa Bupati Sumedang P.A. Suriatmaja yang wafat di Mekkah.",-6.858588345892028,107.92062317984193,"Regol Wetan, Kec. Sumedang Sel., Kabupaten Sumedang, Jawa Barat 45311"
101,Makam Keluarga Pangeran Sugih,"Makam ini terletak di sebelah barat alun-alun kota Sumedang. Di makam ini para leluhur Sumedang disemayamkan diantaranya Pangeran Rangga Gempol II, Pangeran Panembahan , termasuk Pangeran Soeria Koesoemah Adinata atau dikenal dengan Pangeran Sugih. Pangeran Sugih adalah bupati Sumedang yang berkuasa antara tahun 1836 sampai dengan 1882. Pangeran Sugih merupakan bupati terkaya di antara bupati lainnya, juga terkaya di Tatar Sunda. Beliau adalah penerus Kerajaan Sumedang Larang, putra dari Dalem Adipati Koesoemayoeda.",-6.86342665472561,107.91775449871363,"Sukajaya, Kec. Sumedang Sel., Kabupaten Sumedang, Jawa Barat 45311"
102,Makam keramat gunung nangtung,"Situs ziarah yang berlokasi di puncak Gunung Nangtung, dipercaya oleh sebagian masyarakat sebagai tempat terkabulnya hajat untuk memperoleh kedudukan atau jabatan.",-6.862023601859197,107.88839297209394,"Nangtung, Ciherang, Kec. Sumedang Sel., Kabupaten Sumedang, Jawa Barat 45311"
103,"MAKAM PANGERAN SANTRI, DAN MAKAM-MAKAM LELUHUR SUMEDANG LAIN NYA","Merujuk pada kompleks pemakaman Pasarean Gede di pusat kota Sumedang, yang menjadi situs ziarah utama tempat disemayamkannya tokoh-tokoh penting seperti Pangeran Santri dan leluhur Kerajaan Sumedang Larang lainnya.",-6.85355715608742,107.92223155672532,"Kotakulon, Kec. Sumedang Sel., Kabupaten Sumedang, Jawa Barat 45311"
104,Makam Pangeran Soeria Koesoemah Adinata,"Situs pemakaman Pangeran Sugih, seorang bupati berpengaruh dalam sejarah Sumedang, yang menjadi salah satu tujuan ziarah penting bagi masyarakat. ",-6.863219258230869,107.91794067225683,"Sukajaya, Kec. Sumedang Sel., Kabupaten Sumedang, Jawa Barat 45311"
105,Makam Prabu Geusan Ulun,"Kompleks pemakaman raja terakhir Kerajaan Sumedang Larang beserta keluarganya, menjadi situs ziarah sejarah utama yang dilengkapi dengan fasilitas seperti mushola dan area swafoto.",-6.886807614143872,107.9726666721974,"Dayeuh Luhur, Kec. Ganeas, Kabupaten Sumedang, Jawa Barat 45356"
106,Marigold Villa Sumedang,Sebuah vila pribadi yang menawarkan penginapan eksklusif dan juga dapat disewa sebagai lokasi untuk penyelenggaraan berbagai acara.,-6.860411222104478,107.80138674140262,"Jl. Cijambu Cikawung, RT.02/RW.04, Kadakajaya, Kec. Tanjungsari, Kabupaten Sumedang, Jawa Barat 45362"
107,Masjid Agung SUMEDANG,"Masjid utama dan cagar budaya di pusat kota Sumedang yang bangunannya masih terjaga keasliannya, terkenal dengan arsitekturnya yang dipengaruhi oleh seni dan filosofi dari Tiongkok.",-6.859344013336472,107.91991651461552,"Jl. P. Sugih, Regol Wetan, Kec. Sumedang Sel., Kabupaten Sumedang, Jawa Barat 45311"
108,Mata Air Cikandung,"Objek wisata mata air Cikandung di Desa Nyalindung, Kecamatan Cimalaka bisa menjadi pilihan bagi yang suka berwisata air. Pengunjung bisa menikmati kesegaran mata air alami dari kaki Gunung Tampomas sekaligus keindahan alam disekitarnya. Di objek wisata ini, pengunjung bisa menikmati kejernihan dan kesegaran air dari kolam mata air Cikandung. Suasana yang asri serta rindangnya pepohonan yang melindungi mata air, menjadikan suhu udara di sekelilingnya menjadi sejuk.",-6.790877061238136,107.9241202406454,"Nyalindung, Kec. Cimalaka, Kabupaten Sumedang, Jawa Barat 45353"
109,Mata Air Kabuyutan Sirah Cipelang,"Salah satu objek wisata yang berada di Desa Cipamekar Kecamatan Conggeang. Wisata ini memanfaatkan potensi mata air yang berada di kaki Gunung Tampomas bagian timur. Awalnya merupakan mata air yang menjadi sumber air bagi kawasan sekitar, namun saat ini mulai dikembangkan dengan dibangunnya kolam renang.

Sumber mata airnya keluar dari bukit kecil yang berada di bawah rimbunnya pepohonan yang memenuhi kawasan ini. Karena langsung bersumber dari mata air, air Sirah Cipelang ini sangat jernih. Air dari mata air Sirah Cipelang ini mengalir ke arah timur menuju ke kawasan pesawahan terhampar luas.

Banyak pengunjung yang menjadikan mata air Sirah Cipelang ini sebagai lokasi berlibur dan lokasi wisata selfie (swafoto). Bahkan dengan adanya ikan di dalam kolam penampungan air, pengunjung bisa selfie di bawah air bersama ikan-ikan yang ada di sini.",-6.767977424666192,108.00467800522298,"Cipamekar, Kec. Conggeang, Kabupaten Sumedang, Jawa Barat 45391"
110,Mayasi Sumedang,"Sebuah restoran yang berdiri sejak tahun 2014, dikenal dengan produk andalannya yaitu ramen, dan menjadi salah satu pilihan kuliner Jepang di Sumedang.",-6.851247233933371,107.923092257368,"Jl. Prabu Geusan Ulun No.154, Regol Wetan, Kec. Sumedang Sel., Kabupaten Sumedang, Jawa Barat 45311"
111,Menara LOJI,"Sebuah menara pantau peninggalan era perkebunan karet zaman Belanda yang telah direvitalisasi menjadi pusat dari Taman Loji, sebuah ruang terbuka publik di dalam kawasan Kampus ITB Jatinangor.",-6.925329534396344,107.76945999942994,"Sayang, Kec. Jatinangor, Kabupaten Sumedang, Jawa Barat 45363"
112,Monumen Long March Siliwangi,Tugu peringatan yang dibangun untuk menghormati perjuangan dan mengenang pertempuran heroik para tentara Divisi Siliwangi yang gugur saat melakukan perjalanan jauh pada tahun 1948.,-6.6985817754678445,107.95221004168002,"Darongdong, Buahdua, Kec. Buahdua, Kabupaten Sumedang, Jawa Barat 45392"
113,MOUNTAIN DEW,,-6.881243440677565,107.89360444433515,"Jl. Kareumbi, Margalaksana, Kec. Sumedang Sel., Kabupaten Sumedang, Jawa Barat 45311"
114,Museum Prabu Geusan Ulun,"Museum Prabu Geusan Ulun terletak di tengah kota Sumedang, 50 meter dari Alun-alun ke sebelah selatan, berdampingan dengan Gedung Bengkok atau Gedung Negara dan berhadapan dengan Gedung-gedung Pemerintah.",-6.860964809678862,107.92086771450118,"Jl. Prabu Geusan Ulun No.408, Regol Wetan, Kec. Sumedang Sel., Kabupaten Sumedang, Jawa Barat 45311"
115,Nabawadatala,"Museum Prabu Geusan Ulun dikelilingi tembok/ dinding yang tingginya 2,5 meter, dibuat pada tanggal 16 Agustus 1797. Luas halaman Museum seluas 1,88 ha, dengan dihiasi taman-taman dan ditanami pohon-pohon langka. Di dalam kompleks terdapat bangunan-bangunan yang cukup tua , yaitu Gedung Srimangati yang dibangun pada tahun 1706, Gedung Bumi Kaler (1850), dan Gedung Gendeng (1850). Selain itu, terdapat tiga gedunglainnya yang relatif baru, yaitu Gedung Gamelan (1973), Gedung Pusaka (1990), dan Gedung Kereta Naga Paksi (1996).",-6.904479691531241,107.94160521974302,"Jl. Pager Betis No.Km. 10, Citengah, Kec. Sumedang Sel., Kabupaten Sumedang, Jawa Barat 45362"
116,Nangorak Camp,"Di agrowisata Kampung Nangorak ini wisatawan bisa melihat dan ikut dalam aktivitas perkebunan, pertanian, serta budidaya tanaman dari 250 jenis tanaman dan pohon. Wisatawan yang datang juga bisa berjalan-jalan di kebun strawberry sambil memetik dan mencicipi buahnya yang terlihat merah ketuaan. Selain itu, bagi anda yang hobi memancing, juga terdapat tempat memancing disini. Di lahan tertinggi dari kawasan agroteknobisnis ini yang berbatasan dengan hutan asli / premier juga dapat digunakan untuk camping.",-6.912300276937861,107.9155812303004,"Margamekar, Kec. Sumedang Sel., Kabupaten Sumedang, Jawa Barat 45311"
117,Objek Wisata Jembatan Gantung Baginda Gunasari,"Sebuah jembatan gantung fungsional yang menghubungkan dua desa, kini menjadi daya tarik wisata karena menawarkan panorama alam hamparan pesawahan dan aliran Sungai Cihonje yang indah untuk berswafoto.",-6.878591153286743,107.93671227263762,"Jl. Baginda, Baginda, Kec. Sumedang Sel., Kabupaten Sumedang, Jawa Barat 45311"
118,Oleh Oleh Khas Sumedang,"Pusat penjualan cenderamata dan kuliner khas Sumedang, yang paling ikonik adalah Tahu Sumedang, namun juga mencakup produk unggulan lain seperti Ubi Cilembu dan Sawo Sukatali.",-6.8400305763273765,107.9269357993824,"jl Mayor Abdurahman 31 Komplek Pujasera Sawopolo Sumedang Utara, Kotakaler, Kec. Sumedang Utara, Kabupaten Sumedang, Jawa Barat 45322"
119,Panenjoan Jatigede,"Wisata Panenjoan merupakan sebuah lokasi wisata yang berada di pesisir timur laut bendungan Jatigede. Tepatnya berada di wilayah Kampung Burujul Desa Jemah Kecamatan Jatigede. Sebagaimana wisata lainnya yang berada di seputaran bendungan Jatigede, wisata Panenjoan oge mengandalkan indahnya pemandangan bendungan Jatigede.",-6.8591425775267,108.0796038306535,"Pajagan, Kec. Cisitu, Kabupaten Sumedang, Jawa Barat 45363"
120,Panenjoan Pasir Biru,"Sebuah lokasi wisata di pesisir timur laut Bendungan Jatigede yang berfungsi sebagai titik pandang (""panenjoan""), menawarkan pemandangan indah ke arah hamparan air bendungan.",-6.8468529568095455,107.82075531818242,"Pasir Biru, Kec. Rancakalong, Kabupaten Sumedang, Jawa Barat 45361"
121,Pangupukan nagara satangtung,"Sebuah area rekreasi yang namanya sarat akan filosofi Sunda, dikembangkan dengan mengangkat tema budaya dan kearifan lokal.",-6.873500037943543,108.05936092857726,"Gorowong, Pakualam, Kec. Cisitu, Kabupaten Sumedang, Jawa Barat 45363"
122,Paniisan Sahabat Alam,"Destinasi wisata alam yang menekankan pada konsep kebersamaan dengan alam, cocok untuk kegiatan edukasi lingkungan dan relaksasi.",-6.896791535093225,107.77851224173968,"Cilayung, Kec. Jatinangor, Kabupaten Sumedang, Jawa Barat 45363"
123,Pantai Bagelen,"Sebuah area rekreasi di tepi Waduk Jatigede yang dikembangkan dengan konsep ""pantai"" buatan, menawarkan suasana santai untuk keluarga layaknya di pesisir.",-6.9199975327017125,108.08253287040996,"bagelen, Kec. Darmaraja, Kabupaten Sumedang, Jawa Barat 45372"
124,Pantai Cihonje Sembir,"Sebuah spot di tepi aliran Sungai Cihonje yang menjadi viral dan berubah menjadi tempat wisata air dadakan, populer untuk bersantai dan bermain air di tepi sungai.",-6.869690637975575,107.9399997574793,"Gunasari, Kec. Sumedang Sel., Kabupaten Sumedang, Jawa Barat 45311"
125,Paralayang Batu Dua,"Lokasi lepas landas (Take Off) olah raga paralayang di Batu Dua sangat layak dan ideal dipakai event dunia paralayang. Bagi yang memiliki hobi olahraga dirgantara, arena Batu Dua harus masuk dalam daftar tempat wisata di Sumedang yang akan dikunjungi.",-6.9010125218156775,108.01966415435471,"Cimarga, Kec. Cisitu, Kabupaten Sumedang, Jawa Barat 45363"
126,Pasir Bentang Dayeuh Luhur,,-6.873601116996425,107.96398902789096,"Ganeas Dayeuh Luhur, Tanjunghurip, Kec. Ganeas, Kabupaten Sumedang, Jawa Barat 45356"
127,Pasir Cinta,"Di Sumedang sudah banyak dibuka objek wisata dengan spot camp atau view pemandangan yang indah. Salah satunya adalah yang sedang ramai dikunjungi yaitu Pasir Cinta, sebuah bukit yang berada di dekat bendungan Jatigede. Pasir Cinta biasa digunakan sebagai tempat camping, spot foto bahkan bukit ini pernah dijadikan sebagai tempat Paralayang.

Tempat ini memiliki pemandangan yang Indah dengan latar pemandangan langsung Bendungan Jatigede yang dihiasi daratan membentuk pulau, bahkan tanjung seperti halnya di laut. Perahu-perahu yang terlihat dari atas Pasir Cinta juga menambah keindahan objek wisata ini.",-6.8738046206406205,108.05926037018703,"Pakualam, Kec. Darmaraja, Kabupaten Sumedang, Jawa Barat 45372"
128,Pasir Tugaran,"Kawasan wisata di perbukitan pesisir barat Bendungan Jatigede yang mengandalkan pemandangan alam sekitarnya, dilengkapi fasilitas seperti menara pantau dan area memancing.",-6.887110782985028,108.06772367294737,"Karangpakuan, Kec. Darmaraja, Kabupaten Sumedang, Jawa Barat 45372"
129,Pemandian Cipanas Cileungsing,"Tempat wisata di Sumedang berikutnya adalah pemandian air panas Cileungsing yang ada di Desa Cilangkap. Pemandian air panas ini sangat populer bagi masyarakat sekitar, tidak heran kalau pemandian ini selalu ramai oleh wisatawan, terutama saat liburan atau akhir pekan.",-6.72482289560987,107.9763447433316,"Cilangkap, Kec. Buahdua, Kabupaten Sumedang, Jawa Barat 45392"
130,Pesona JG Jatigede Sumedang,"Sebuah titik wisata yang dikembangkan secara khusus untuk menikmati pesona keindahan (""pesona"") panorama Waduk Jatigede (JG), menjadi salah satu spot favorit di tepi bendungan",-6.895168305549703,108.0723700627356,"Jemah, Kec. Jatigede, Kabupaten Sumedang, Jawa Barat 45377"
131,Pesona Taman puspa,"Tanjungsari Kabupaten Sumedang kini memiliki tempat wisata baru yang dinamai Pesona Taman Puspa di Dusun Sukaratu Desa Cijambu, Kecamatan Tanjungsari Kabupaten Sumedang. Pesona Taman Puspa sendiri memiliki luas 6 Ha milik Perhutani Jawa Barat yang akan dijadikan tempat wisata alam yang bisa menambah pendapatan Kabupaten Sumedang dari sektor Pariwisata.

Selain ada aliran air bening, di Pesona Taman Puspa juga terdapat pohon-pohon pinus dengan kondisi udara yang kaya akan oksigen. Salah satu keunggulan wisata alam dan edukasi seperti halnya Pesona Taman Puspa, adalah bisa meningkatkan kemampuan diri untuk lebih kreatif. Dengan menikmati wisata alam, pengunjung juga bisa menikmati proses olah raga yang cukup efektif untuk tetap menjaga kondisi tubuh agar tetap bugar, seperti berjalan kaki menaiki perbukitan misalnya. Dari alam, pengunjung bisa belajar tentang bagaimana setiap unsur alam dapat hidup dan saling melengkapi satu sama lain.",-6.831088990486754,107.79765942756492,"Cijambu, Tanjungsari,Kabupaten Sumedang, Jawa Barat 45362"
132,Pojok Sawangan Mia,"Sebuah sudut atau tempat (""pojok"") yang dirancang khusus sebagai spot foto dengan pemandangan (""sawangan"") alam yang indah.",-6.777854932444019,107.9121793573659,"Jl. Raya Cimalaka Cipadung blok sawah pojok, dusun 2, Naluk, Kec. Cimalaka, Kabupaten Sumedang, Jawa Barat 45353"
133,Ponyo® Resto & Wedding - Ciherang Sumedang,"Cabang dari restoran Sunda ternama ""Ponyo"" yang tidak hanya menyajikan kuliner khas, tetapi juga menyediakan fasilitas lengkap sebagai lokasi penyelenggaraan acara pernikahan.",-6.86987803442581,107.8738363995498,"Raya Bandung Sumedang Ciherang No.Km 38, Ciherang, Kec. Sumedang Sel., Kabupaten Sumedang, Jawa Barat 45311"
134,Puncak Cisoka Perkebunan Teh,"Sebuah puncak bukit yang menyajikan pemandangan hamparan perkebunan teh yang hijau dan menyegarkan, menjadi bagian dari kawasan wisata Saung Jalitri Cisoka.",-6.933422881710168,107.97365762550533,"Citengah, Kec. Sumedang Sel., Kabupaten Sumedang, Jawa Barat 45311"
135,PUNCAK GUNUNG GOLEMPANG,Sebuah gunung di kawasan Darmaraja yang memiliki pesona alam dan sedang dikembangkan oleh pemerintah desa setempat untuk menjadi destinasi wisata alam.,-6.92860058867011,108.05554924074904,"Darmaraja, Kec. Darmaraja, Kabupaten Sumedang, Jawa Barat 45372"
136,Puncak Permata,"Puncak Permata berada ditepian Waduk Jatigede atau berada di Jalan Lingkar Timur Waduk Jatigede yang menghubungkan wilayah Tomo dan Wado di Kabupaten Sumedang. Selain itu, ruas Jalan Lingkar Timur Waduk Jatigede juga menghubungkan wilayah Kabupaten Garut dan Tasikmalaya dengan Kabupaten Majalengka. Dikawasan wisata ini, Anda juga dapat menyaksikan pemandangan matahari terbenam atau sunset. Tempat wisata ini menyuguhkan panorama alam berupa bukit -bukit kecil diantara hamparan air waduk Jatigede. Air waduk Jatigede bergradasi warna biru yang berpadu dengan langit berwarna biru, menambah pesona keindahan dan menjadi spot foto yang instagramable.",-6.868733904582681,108.12240218536805,"Jemah, Kec. Jatigede, Kabupaten Sumedang, Jawa Barat 45377"
137,Puncak Sokawana,"Salah satu puncak di Sumedang yang menjadi tujuan pendakian lokal, menawarkan pemandangan alam yang masih asri dan menantang.",-6.929589207083468,107.97664649152118,"Citengah, Kec. Sumedang Sel., Kabupaten Sumedang, Jawa Barat 45311"
138,Puteri River Inn,"Puteri River inn adalah sebuah kawasan yang didalamnya terdapat villa yang menyajikan pemandangan sawah yang masih asri dan sungai yang masih jernih. Pohon-pohon hijau didepan mata, petani yang berangkat ke sawah, sungai yang masih jernih, suasana khas pedesaan sekali. Terletak tepat di belakang kantor Desa Citengah, Kabupaten Sumedang. Dari alun-alun sumedang harus menempuh jarak sekitar 3 km. Akes jalannya bagus, tempat parkir di sediakan walau tidak didekat Villa.",-6.916283321346522,107.94624982903574,"Citengah, Kec. Sumedang Sel., Kabupaten Sumedang, Jawa Barat 45311"
139,Putra Aceh,"Restoran yang menyajikan masakan khas Aceh, menambah keragaman kuliner Nusantara di Sumedang dan menjadi pilihan bagi para perantau atau pecinta masakan Aceh",-6.934242936934427,107.77016537324842,"Jl. Raya Cirebon - Bandung, Cikeruh, Kec. Jatinangor, Kabupaten Sumedang, Jawa Barat 45363"
140,R.M Joglo Sumedang,"Rumah makan yang unik karena menggunakan bangunan berarsitektur tradisional Jawa ""Joglo"", menawarkan suasana bersantap yang khas dengan beragam menu masakan",-6.817925003612454,107.94624244117855,"Jl. Raya Serang No.333, Serang, Kec. Cimalaka, Kabupaten Sumedang, Jawa Barat 45353"
141,Rancagoyang Water Boom,"Taman rekreasi air modern yang menawarkan berbagai wahana seperti seluncuran dan kolam ombak, menjadi destinasi hiburan utama bagi keluarga dan anak-anak",-6.842055805949719,107.93956410007536,"Rancamulya, Kec. Sumedang Utara, Kabupaten Sumedang, Jawa Barat 45621"
142,Rm Kartika,Sebuah rumah makan lokal yang populer dan sudah cukup dikenal oleh masyarakat Sumedang dengan berbagai pilihan menu masakan Indonesia,-6.819930797826228,107.94429317335938,"Jl. Raya Serang No.95, Serang, Kec. Cimalaka, Kabupaten Sumedang, Jawa Barat 45353"
143,RM Sederhana Hj Erat,"Rumah makan yang menyajikan masakan rumahan khas Sunda, menjadi pilihan populer bagi warga lokal dan pelancong yang mencari cita rasa otentik",-6.851200539187725,107.92426233813524,"Panday No.31, Regol Wetan, Kec. Sumedang Sel., Kabupaten Sumedang, Jawa Barat 43532"
144,RM. Cahaya Sari,"Sebuah rumah makan yang sudah cukup dikenal di Sumedang, menyajikan beragam menu dan menjadi salah satu pilihan kuliner bagi warga maupun wisatawan",-6.832382446093107,107.934776770785,"Jl. Raya Cirebon - Bandung No.231, Kotakaler, Kec. Sumedang Utara, Kabupaten Sumedang, Jawa Barat 45621"
145,Rumah Makan Alam Sari,"Restoran yang menawarkan pengalaman bersantap dengan suasana alam yang asri, menyajikan berbagai hidangan khas Sunda yang cocok dinikmati bersama keluarga",-6.830519853885515,107.93724357037516,"Jl. Mayor Abdurahman No.194, Cimuja, Kec. Cimalaka, Kabupaten Sumedang, Jawa Barat 45353"
146,Rumah Makan Elok,"Tempat makan populer di Jatinangor yang menyajikan aneka masakan khas Minangkabau dengan harga terjangkau, menjadi favorit di kalangan mahasiswa. ",-6.935060584792551,107.7768000415628,"Jl. Ciseke No.231, Cikeruh, Kec. Jatinangor, Kabupaten Sumedang, Jawa Barat 45363"
147,Rumah Makan Fish 88,"Restoran di Cimalaka yang berspesialisasi dalam aneka hidangan ikan air tawar segar dari kolam deras, dengan menu andalan seperti Sup Gurame dan Cobek Nila.",-6.811261920393986,107.96876954386092,"Jl. Raya Cibeureum No.337, Cibeureum Kulon, Kec. Cimalaka, Kabupaten Sumedang, Jawa Barat 45353"
148,Rumah Makan Khas Sunda Cibiuk,"Restoran Sunda ternama yang memiliki cabang di Jatinangor, terkenal dengan menu legendarisnya seperti Nasi Tutug Oncom dan aneka sambal khas Cibiuk yang pedas",-6.9347197083986005,107.77001312923288,"Jl. Raya Jatinangor No.136, Cikeruh, Kec. Jatinangor, Kabupaten Sumedang, Jawa Barat 45363"
149,Rumah Makan Organik Saung Nini,"Restoran berkonsep saung yang unik karena menonjolkan penggunaan bahan-bahan organik dalam setiap masakannya, menyasar para pencinta kuliner sehat",-6.9214952285699285,107.78938011460738,"Jl. Raya Jatinangor No.KM, 23.5, Kutamandiri, Kec. Tanjungsari, Kabupaten Sumedang, Jawa Barat 45352"
150,Rumah Makan Saung Bamboe,"Merujuk pada Saung Bambu Parahyangan, sebuah rumah makan berkonsep saung bambu yang menyajikan masakan Sunda otentik dengan suasana pedesaan yang nyaman dan sejuk.",-6.927405134359221,107.77991038616024,"Cisaladah No.84, rt.04 rw.07, Hegarmanah, Kec. Jatinangor, Kabupaten Sumedang, Jawa Barat 45363"
151,Rumah Makan Saung Cibingbin 2,"Restoran khas Sunda yang berlokasi di pusat kota Sumedang, menyajikan menu favorit seperti cobek ikan pedas dalam suasana saung yang nyaman",-6.849905329348843,107.91604035725042,"Jl. Kutamaya No.27, Kotakulon, Kec. Sumedang Sel., Kabupaten Sumedang, Jawa Barat 45311"
152,Rumah Makan Saung Teko,"Rumah makan khas Sunda yang memiliki teko sebagai ikonnya, menyajikan hidangan tradisional dalam suasana pedesaan yang nyaman",-6.828758322598649,107.93958319932496,"Jl. Raya Cimuja, Cimuja, Kec. Cimalaka, Kabupaten Sumedang, Jawa Barat 45353"
153,Rumah Makan Sawargi,"Rumah makan khas Sunda terkenal yang berlokasi strategis dekat gerbang Tol Sumedang, populer untuk acara makan bersama keluarga dengan menu andalan presto ayam kampung",-6.832120602269992,107.91780100409048,"Jl. Prabu Gajah Agung No.48, Situ, Kec. Sumedang Utara, Kabupaten Sumedang, Jawa Barat 45621"
154,Rumah Makan Sederhana Hj Erat,"Warung makan sederhana yang telah lama berdiri dan dikenal oleh masyarakat lokal, menyajikan masakan rumahan khas Sunda yang lezat dan otentik.",-6.8423433821096165,107.92603498195204,"Jl. Tampomas No.30, Kotakaler, Kec. Sumedang Utara, Kabupaten Sumedang, Jawa Barat 45621"
155,Rumah Makan Sunda SUKAHATI Cipacing,"Restoran spesialis masakan Sunda yang berlokasi strategis di area Cipacing, sering menjadi tempat persinggahan bagi para pelancong yang melintasi Sumedang",-6.947288534949672,107.75968572776864,"Jl. Raya Cipacing No.19.6, Cipacing, Kec. Jatinangor, Kabupaten Sumedang, Jawa Barat 45363"
156,Rumah Makan Tahu Bungkeng,"Restoran yang berafiliasi langsung dengan produsen tahu legendaris Tahu Bungkeng, menyajikan tahu sebagai menu utama beserta hidangan pendamping khas Sunda lainnya",-6.8365648478445324,107.9170621906349,"Jl. Prabu Gajah Agung No.78, Situ, Kec. Sumedang Utara, Kabupaten Sumedang, Jawa Barat 45621"
157,Samalengoh Camp,"Di Sumedang terdapat tempat camping yang menarik untuk disinggahi. lokasinya berada di Bumi Perkemahan Blok Gunung Gajah atau biasa disebut Samalengoh Camp. Selain menawarkan panorama alam memikat, udara di kawasan perbukitan ini juga sejuk. Pada malam hari, wisatawan juga akan disuguhkan dengan hamparan pemandangan cahaya lampu yang berasal dari kawasan perkotaan Sumedang. Ribuan lampu yang menyinari “Citylight” dengan latar belakang Gunung Tampomas.

Samalengoh Camp berada diantara 4 Desa. Desa GunturMekar, Desa Pamarisen, Desa Sukamaju dan Desa Cibungur. Untuk rute menunju lokasi bisa diakses melalu keempat Desa terbut, tapi yang paling direkomendasikan melalui Desa Pamarisen karena aksesnya lebih bagus.",-6.81068678323065,107.8856707252462,"Gunturmekar, Kec. Tanjungkerta, Kabupaten Sumedang, Jawa Barat 45354"
158,Sangiang Camp,"Sangiang Camp adalah destinasi wisata alam yang menawarkan pengalaman berkemah di tengah hutan pinus dengan suasana yang sejuk dan asri. Lokasinya yang berada di ketinggian memberikan pemandangan alam yang memukau, cocok bagi pecinta alam dan petualangan.

Tempat ini menyediakan berbagai fasilitas untuk memanjakan pengunjung, mulai dari area perkemahan yang luas dengan pemandangan hutan pinus yang hijau, toilet dan kamar mandi yang bersih, saung untuk bersantai sambil menikmati udara segar, hingga jalur trekking yang menantang untuk para petualang.

Sangiang Camp terletak di Desa Sangiang, Kecamatan Rancakalong, Kabupaten Sumedang, Jawa Barat. Dengan lokasi yang strategis dan mudah diakses, tempat ini menjadi pilihan yang tepat untuk melepas penat dari rutinitas sehari-hari sambil menikmati keindahan alam Sumedang yang masih asri dan terjaga.",-6.918259773117175,108.054988542578,"Cieunteung, Kec. Darmaraja, Kabupaten Sumedang, Jawa Barat"
159,SAPATAPAAN,"Sapatapaan, akronim dari Saung Paragi Tafakur Kabudayaan (Saung tempat menafakuri kebudayaan). Sapatapaan merupakan tempat berinteraksinya seniman dan budayawan yang peduli terhadap Sumedang melalui pengembangan seni, budaya, tradisi dan lingkungan serta juga membangun simpul-simpul pemberdayaan melalui pngembangan seni budaya tradisi dan lingkungan.

Sapatapaan mengusung konsep gabung tiga elemen, yaitu arsitektur Sunda alam Sumedang, dan perilaku masyarakat Sunda. Ini disebutnya Nyaba Ka Sumedang (berkunjung ke Sumedang), sebuah wisata yang berkonsepkan figur urang Sunda berbaur dengan alam dan lingkunganya dan disajikan dalam bentuk foto. Para pengunjung bisa berperan langsung mengenakan pakaian adat Sunda. Seperti laki-laki menggunakan pangsi hitam dan totopong (ikat kepala), sementara perempuan menggunakan kebaya. Properti pakaian ini sudah disediakan pengelola di Sapatapaan.",-6.913436570596172,107.95120009503432,"Citengah Cisoka, Citengah, Kec. Sumedang Sel., Kabupaten Sumedang, Jawa Barat 45311"
160,Sapphire City Park Sumedang,,-6.844253766797236,107.93967514369514,"Sapphire City Park Sumedang, Jl. Prabu Taji Malela, Rancamulya, Kec. Sumedang Utara, Kabupaten Sumedang, Jawa Barat 45321"
161,Sari Kedele Farm (SKF),"Sebuah agrowisata yang berfokus pada pertanian kedelai, bahan baku utama tahu, yang membuka pintunya untuk kunjungan edukatif mengenai proses dari hulu ke hilir pembuatan tahu",-6.888303572066145,107.76628189904014,"Sindangsari, Kec. Sukasari, Kabupaten Sumedang, Jawa Barat"
162,Sari Kedele Rumah Makan Tahu Sumedang,"Rumah makan yang menekankan hubungannya dengan kedelai sebagai bahan baku utama, menyajikan berbagai hidangan yang berpusat pada Tahu Sumedang",-6.928630781132445,107.78217037012897,"Jl. Raya Cirebon - Bandung No.21, Hegarmanah, Kec. Jatinangor, Kabupaten Sumedang, Jawa Barat 45363"
163,Sate Iting Sumedang,"Penjual sate yang telah menjadi legenda dan ikon kuliner di Sumedang, terkenal dengan cita rasa bumbu satenya yang khas dan telah digemari selama bertahun-tahun.",-6.833984923341851,107.93236261260684,"Jalan Mayor Abdurahman Kubang Jaya Andir, Kec. Sumedang Utara, Kabupaten Sumedang, Jawa Barat 45621"
164,Saung Aki Unen,"Rumah makan berkonsep saung (gubuk bambu) yang menawarkan cita rasa masakan Sunda otentik warisan dari ""Aki Unen"", memberikan pengalaman bersantap tradisiona",-6.84131728143212,107.91196267059026,"Kotakulon, Kec. Sumedang Sel., Kabupaten Sumedang, Jawa Barat 45311"
165,Saung Alam Flora,"Tempat makan berkonsep saung yang dikelilingi oleh taman bunga atau tanaman hias (flora), memadukan pengalaman kuliner dengan keindahan dan kesejukan alam.",-6.862715334164638,107.92251525737196,"Jl. Cut Nyak Dien No.93, RT.2/RW.7, Regol Wetan, Kec. Sumedang Sel., Kabupaten Sumedang, Jawa Barat 45311"
166,Saung Bambu Parahyangan (Nolana),"Restoran yang dibangun dominan menggunakan material bambu, menyajikan masakan khas dari tatar Parahyangan dalam suasana pedesaan yang kental.",-6.884116331579498,107.80232045724686,"Jln.Cijambu RT.002/002 Dsn.Talun, Pasigaran, Kec. Tanjungsari, Kabupaten Sumedang, Jawa Barat 45362"
167,Saung bapak undang (belum ada review),"Rumah makan saung tradisional yang dikelola secara personal, menawarkan hidangan Sunda rumahan yang otentik",-6.866680838164399,107.92058639966707,"Cipameungpeuk, Kec. Sumedang Sel., Kabupaten Sumedang, Jawa Barat 45311"
168,Saung barak,"Tempat makan sederhana berkonsep saung, cocok untuk makan bersama rombongan dengan suasana yang santai dan informal",-6.842079828898217,107.91674402834605,"Jl. Prabu Gajah Agung No.11, Situ, Kec. Sumedang Utara, Kabupaten Sumedang, Jawa Barat 45621"
169,Saung Cibingbin Sumedang,"Saung Cibingbin adalah sebuah rumah makan yang terletak di desa Citengah, kabupaten Sumedang Jawa Barat. Lokasi saung cibingbin berada di dataran tinggi dengan nuansa alam yang hijau dan berada di pinggiran sungai. Disini wisatawan bisa menikmati aneka sajian kuliner dan menyaksikan keindahan hutan dan kejernihan sungai.

Berbagai fasilitas untuk liburan keluarga tersedia disini, mulai dari wisata alam, wisata air seperti kolam renang, kolam ikan, villa, caffe, rumah makan yang membuat menarik pengunjungnya.",-691104141154001.0,107.94906067346562,"Citengah Cisoka, Citengah, Kec. Sumedang Sel., Kabupaten Sumedang, Jawa Barat 45311"
170,SAUNG JALITRI CISOKA,"Restoran saung yang terletak di kawasan agrowisata Cisoka, menawarkan hidangan khas Sunda seperti nasi liwet sambil menikmati pemandangan hamparan perkebunan teh",-6.928841885016762,107.97498395730828,"Citengah, Kec. Sumedang Sel., Kabupaten Sumedang, Jawa Barat 45311"
171,Saung Nyingkur,"Rumah makan saung yang lokasinya agak terpencil atau ""nyingkur"", menawarkan suasana bersantap yang lebih privat, tenang, dan jauh dari keramaian",-6.872744738017793,107.79884729966768,"Jl. Cijambu No.11, Pasigaran, Kec. Tanjungsari, Kabupaten Sumedang, Jawa Barat 45362"
172,Saung Situraja Sumedang,"Restoran saung yang menjadi andalan kuliner di wilayah Kecamatan Situraja, menyajikan masakan khas dari daerah tersebut",-6.845243333981588,108.02054927064552,"RT.01/RW.01, Situraja, Kec. Situraja, Kabupaten Sumedang, Jawa Barat 45371"
173,Saung Sungai Cihonje,"Tempat makan yang menawarkan pengalaman unik bersantap di saung yang terletak persis di tepi Sungai Cihonje, diiringi suara gemericik air alami",-6.913000338816388,107.9491626708737,"Citengah Cisoka, Citengah, Kec. Sumedang Sel., Kabupaten Sumedang, Jawa Barat 45311"
174,Site Museum Lembah Cisaar,"Museum Lembah Cisaar adalah museum situs purbakala yang terletak di Desa Jembarwangi, Kecamatan Tomo, Kabupaten Sumedang. Museum ini menyimpan fosil binatang purba berusia jutaan tahun yang ditemukan di wilayah Lembah Cisaar, seperti gading gajah stegodon, tempurung kura-kura, gigi buaya, gigi kuda nil, dan lainnya. Museum ini diharapkan menjadi tujuan wisata baru dan sarana edukasi mengenai sejarah purbakala di Sumedang. Saat ini, untuk masuk ke Museum Lembah Cisaar masih tidak dikenakan biaya.",-6.827359097384772,108.1380430713136,"Dusun Cirendang, Jembarwangi, Kec. Tomo, Kabupaten Sumedang, Jawa Barat 45382"
175,Situ Burahol,"Sebuah danau (""situ"") alami yang menawarkan suasana tenang dan pemandangan air yang indah, menjadi lokasi favorit untuk kegiatan memancing atau sekadar bersantai",-6.803416186160251,107.92906661524628,"Trunamanggala, Kec. Cimalaka, Kabupaten Sumedang, Jawa Barat 45353"
176,Soto Edo Dan Gule,"Warung makan yang berspesialisasi pada hidangan soto dan gule, menjadi salah satu destinasi kuliner favorit warga lokal untuk sarapan atau makan siang",-6.835939070680424,107.92954345707898,"Jl. Mayor Abdurahman No.278, Kotakaler, Kec. Sumedang Utara, Kabupaten Sumedang, Jawa Barat 45621"
177,SUMEDANG ADVENTURE,"Sebuah operator atau penyedia jasa yang menawarkan berbagai paket kegiatan petualangan di alam terbuka Sumedang, seperti off-road, arung jeram, atau outbound",-6.815326415039365,107.920387299214,"Situwangi No.1, Jatihurip, Kec. Sumedang Utara, Kabupaten Sumedang, Jawa Barat 45621"
178,Tahu Bungkeng 1917 (Pusat),"Gerai pusat dari produsen Tahu Sumedang paling legendaris, yang telah beroperasi sejak tahun 1917 dan menjadi cikal bakal kuliner khas Sumedang yang populer",-6.847973724818665,107.92567914151094,"Jl. Sebelas April No.53, Kotakaler, Kec. Sumedang Utara, Kabupaten Sumedang, Jawa Barat 45322"
179,Tahu Citarasa,"Salah satu produsen dan penjual Tahu Sumedang yang populer, menjadi alternatif bagi wisatawan untuk mencicipi dan membeli oleh-oleh tahu",-6.840320423063248,107.92619090221902,"Jl. Mayor Abdurahman No.140, Kotakaler, Kec. Sumedang Utara, Kabupaten Sumedang, Jawa Barat 45322"
180,Tahu JEMBAR MANAH Samoja dan Kopi Batok,"Gerai tahu inovatif yang menggabungkan penjualan tahu tradisional dengan kedai kopi unik yang menyajikan kopi dalam batok kelapa, menarik bagi generasi muda",-6.861815230124608,107.89735655725502,"Jl. Samoja, Pasanggrahan Baru, Kec. Sumedang Sel., Kabupaten Sumedang, Jawa Barat 45311"
181,Tahu Palasari Sumedang,"Salah satu produsen tahu Sumedang legendaris yang telah berdiri sejak lama, terkenal dengan tahu berkualitas yang renyah di luar dan lembut di dalam, serta menjadi destinasi kuliner wajib di Sumedang.",-6.840562386485667,107.92572921289,"Jl. Mayor Abdurahman No.153, Kotakaler, Kec. Sumedang Utara, Kabupaten Sumedang, Jawa Barat 45621"
182,Tahura Gunung Kunci,"Gunung Kunci sendiri menyimpan nilai historis yang panjang. Disini didirikan benteng pertahanan Belanda. Sebenarnya Gunung kunci merupakan bukit kecil yang terletak sekitar 250 m di sebelah barat alun-alun Kota Sumedang.

Kita bisa menuju Gunung Kunci dengan kendaraan umum maupun pribadi. Secara administratif, situs ini masuk dalam wilayah Gunung Panjunan, Kelurahan Kota Kulon, Kecamatan Sumedang Selatan.

Hampir sama seperti lobang Jepang di Bukit Tinggi Sumatera Barat, Gunung Kunci juga memiliki ruangan di dalam yang merupakan lorong-lorong dan ruang-ruang dengan berbagai fungsi. Pada beberapa bagian terdapat lubang ventilasi berupa cerobong besi. Pada bagian puncaknya dibangun kelengkapan benteng berupa bangunan keliling yang mengitari puncak Gunung Kunci, Pada bagian ini terdapat beberapa bagian berdenah setengah lingkaran yang menjorok ke luar.",-6.8560291956539,107.91752802090517,"Kotakulon, Kec. Sumedang Sel., Kabupaten Sumedang, Jawa Barat 45311"
183,Tahura Palasari,"Situs wisata sejarah tak melulu identik dengan sepi, berdebu, dan angker. Itulah yang dirasakan saat memasuki objek wisata Taman Hutan Raya (Tahura) Gunung Palasari Sumedang.

Pengunjung yang datang pun disuguhi tak hanya objek bersejarah, tetapi juga wisata alam dan berbagai atraksi. Para pengunjung dapat dengan bebas masuk dan melihat-lihat di gua dan benteng bersejarah dari zaman penjajahan Belanda.

Dengan luas 31,22 hektar ini, kawasan Gunung Palasari memiliki 205 spesies flora. Di antaranya akasia, Eboni, Jati, Pinus dan masih banyak yang lainnya. Gunung ini berada di Kelurahan Kota Kulon, Kecamatan Sumedang Selatan, Kabupaten Sumedang, Jawa Barat.",-6.855449059886054,107.91216138195348,"Gunung Palasari, Kotakulon, Kec. Sumedang Sel., Kabupaten Sumedang, Jawa Barat 45311"
184,Taman Batu Ciagung,"Menyusuri kawasan Batu Agung sangat mengesankan berada dihamparan lahan yang ditumbuhi ratusan pohon mangga, aneka tanaman keras serta gemercik aliran sungai Cisaar. Suasana sepi yang sesekali diselingi jeritan puluhan lutung sejenis kera yang dilindungi. Selain memiliki potensi wisata alam Batu Agung menanti kehadiran penggemar olah raga rock climbing dengan kondisi ketinggian dan kecuramannya yang cukup menantang guna uji nyali.

Obyek Wisata Batu Agung di Sumedang Jawa Barat ini sangat cocok sekali buat para wisatawan yang suka dengan petualangan karena untuk menuju Obyek Wisata Batu Agung di Sumedang Jawa Barat di butuhkan kerja keras dan juga penuh rintangan.",-6.916111880722066,108.18192833158524,"Ciboboko Jl. Lkr. Timur, Mekarasih, Kec. Jatigede, Kabupaten Sumedang, Jawa Barat 45377"
185,Taman Bukit Ebony,,,,
186,Taman Cecenet,"Taman Cecenet berada di kawasan lahan pertanian di tenggara wilayah Desa Kadakajaya, berupa lahan pesawahan dan lahan ladang yang berbentuk terasering. Tidak mengherankan jika sekeliling Taman Cecenet menyajikan pemandangan alam yang menakjubkan, apalagi memandang ke sebelah timur yang menyajikan pemandangan lahan pertanian di perbukitan yang berwarna-warni. Lelah berkeliling kawasan Taman Cecenet, jangan sungkan untuk berkunjung ke cafe atau resto di Taman Cecenet. Di cafe Taman Cecenet tersedia beberapa jenis makanan yang bisa dipesan oleh pengunjung. Menu makanan yang tersedia diantaranya adalah Sop Iga Kumplit, Ayam, Ikan, Lalap dan Sambal. Tak ketinggalan juga sejumlah menu minuman seperti air kelapa muda dan jus buah-buahan. Bagi yang membawa anak-anak, Taman Cecenet juga menyediakan lokasi untuk bermain anak-anak. Ada perosotan, ayunan dan kuda-kudaan yang akan memanjakan anak-anak bermain di Taman Cecenet. Dan bagi yang menyukai wisata berkemah, di Taman Cecenet juga tersedia lokasi Camping Ground yang bisa digunakan sebagai tempat berkemah. Atau ada yang ingin melaksanakan pesta pernikahan, di Taman Cecenet juga bisa diselenggarakan dengan konsep garden party.",-6.862020698409583,107.8013890118437,"Jl. Cijambu, Kadakajaya, Kec. Tanjungsari, Kabupaten Sumedang, Jawa Barat 45362"
187,Taman Endog,"Taman kota yang menjadi ikon lokal karena memiliki monumen berbentuk telur (""endog""), berfungsi sebagai ruang terbuka hijau untuk rekreasi keluarga di pusat kota",-6.847370629414866,107.92404274162428,"Jalan Mayor Abdurahman, Talun, Sumedang Utara, Regol Wetan, Sumedang Selatan, Kotakaler, Kec. Sumedang Utara, Kabupaten Sumedang, Jawa Barat 45311"
188,Taman Pinus Pangjugjugan,"Kawasan wisata hutan pinus di Pamulihan yang dikelola dengan baik, menawarkan udara sejuk, jalur setapak, dan berbagai spot foto menarik untuk rekreasi keluarga.",-6.917641084531017,107.84927285730996,"Cilembu, Kec. Pamulihan, Kabupaten Sumedang, Jawa Barat 45365"
189,Taman Seribu Cahaya,"Taman Seribu Cahaya, yang terletak di pinggir Waduk Jatigede, Sumedang, Jawa Barat, adalah destinasi wisata alam yang menawarkan pemandangan memukau. Dengan hamparan air waduk yang tenang dikelilingi pegunungan dan pulau-pulau hijau, tempat ini menjadi lokasi ideal untuk menikmati keindahan alam. Pengunjung dapat menyaksikan matahari terbit dan terbenam yang spektakuler, serta menikmati berbagai wahana permainan yang seru seperti ATV, Sky Plane, dan Gantole.

Selain pemandangan alam yang indah, Taman Seribu Cahaya juga dilengkapi dengan berbagai fasilitas yang memadai. Pengunjung dapat bersantai di restoran dan kafe, bermain di area bermain (playground), atau bahkan berkemah di area camping yang tersedia. Dengan harga tiket masuk yang terjangkau, tempat ini cocok untuk dikunjungi bersama keluarga atau teman-teman untuk melepas penat dan menikmati keindahan alam Sumedang.",-6.873713137963386,108.05900060018398,"Pakualam, Kec. Darmaraja, Kabupaten Sumedang, Jawa Barat 45372"
190,TAPAK RAJA SITURAJA,"Sebuah inisiatif wisata di wilayah Situraja yang kemungkinan besar terkait dengan situs alam atau peninggalan sejarah yang memiliki legenda tentang jejak (""tapak"") seorang raja",-6.844523138819207,108.01980664185096,"Situraja, Kec. Situraja, Kabupaten Sumedang, Jawa Barat 45371"
191,TERAS GUNUNG GEULIS,"Area wisata di lereng Gunung Geulis yang ditata seperti terasering, menyediakan tempat bersantai atau kafe untuk menikmati pemandangan dari ketinggian",-6.923829681322933,107.8113125581052,"Jatiroke, Kec. Jatinangor, Kabupaten Sumedang, Jawa Barat 45363"
192,Teras Kiara,"Tempat rekreasi yang dibangun di bawah atau di sekitar pohon Kiara besar, menawarkan tempat berteduh alami dengan pemandangan alam yang indah",-6.899141430217584,107.7635957571357,"Sindangsari, Sukasari, Sindangsari, Kec. Sukasari, Kabupaten Sumedang, Jawa Barat 45366"
193,TOGA HILL,"Toga Hills adalah objek wisata yang terletak di Desa Sukajaya, Kecamatan Sumedang Selatan, Kabupaten Sumedang, Jawa Barat. Objek wisata ini merupakan sebuah resort perbukitan yang menawarkan berbagai macam atraksi, antara lain:

Paralayang: Toga Hills merupakan tempat yang populer untuk paralayang, karena anginnya yang kencang dan pemandangannya yang menakjubkan dari pegunungan dan lembah di sekitarnya. Jalur alam: Toga Hills memiliki sejumlah jalur alam yang melintasi hutan-hutan di sekitarnya, menawarkan pengunjung kesempatan untuk menjelajahi flora dan fauna setempat. Tempat berkemah: Toga Hills memiliki beberapa tempat berkemah di mana pengunjung dapat bermalam dan menikmati ketenangan alam sekitarnya. Restoran dan kafe: Toga Hills memiliki sejumlah restoran dan kafe yang menyajikan berbagai macam hidangan lokal dan internasional. Toko suvenir: Toga Hills juga memiliki sejumlah toko suvenir di mana pengunjung dapat membeli kerajinan tangan lokal dan memorabilia lainnya.

Toga Hills adalah tempat yang tepat untuk dikunjungi bagi mereka yang menikmati aktivitas luar ruangan, alam, dan pemandangan yang menakjubkan. Ini juga merupakan tempat yang baik untuk bersantai dan melarikan diri dari hiruk pikuk kehidupan sehari-hari.",-6.876733902238776,107.90953948163242,"Sukajaya, Kec. Sumedang Sel., Kabupaten Sumedang, Jawa Barat 45311"
194,Tugu Binokasih,"Monumen yang melambangkan peristiwa bersejarah penyerahan Mahkota Binokasih dari Kerajaan Pajajaran, yang mengukuhkan Kerajaan Sumedang Larang sebagai penerus takhta Sunda",-6.860370930089275,107.91634212834208,"Jl. P. Sugih No.16, Regol Wetan, Kec. Sumedang Sel., Kabupaten Sumedang, Jawa Barat 45311"
195,Tugu Buah Mangga,"Sebuah tugu atau monumen yang didirikan untuk merepresentasikan salah satu produk pertanian unggulan daerah, yaitu mangga gedong gincu yang khas dari Sumedang",-6.766061761636986,108.16006569927224,"Jl. Fatmawati No.1, Tolengas, Kec. Tomo, Kabupaten Sumedang, Jawa Barat 45382"
196,Tugu Kuda,"Monumen berbentuk kuda yang menjadi salah satu landmark atau penanda kota Sumedang, kemungkinan terkait dengan cerita rakyat atau sejarah lokal.",-6.863265551541804,107.89726680685928,"Pasanggrahan No.25, Pasanggrahan Baru, Kec. Sumedang Sel., Kabupaten Sumedang, Jawa Barat 45311"
197,Tutug Oncom KAJOJO,"Tempat makan yang berspesialisasi dalam menyajikan Nasi Tutug Oncom, sebuah hidangan khas Sunda yang terbuat dari nasi yang diaduk dengan oncom bakar",-6.838427913176323,107.92657377254248,"Jl. Angkrek No.18a, Kotakaler, Kec. Sumedang Utara, Kabupaten Sumedang, Jawa Barat 45621"
198,Villa SCBD Sumedang,Nama unik untuk sebuah vila yang menawarkan fasilitas modern dan mewah untuk liburan keluarga atau rombongan yang mencari penginapan privat,-6.820191180702444,107.913360783864,"Dusun Jl. Gn. Sari, Jatimulya, Kec. Sumedang Utara, Kabupaten Sumedang, Jawa Barat 45321"
199,Waduk Jatigede,"Bendungan raksasa yang menjadi ikon wisata alam utama Sumedang, menawarkan pemandangan perairan luas yang dikelilingi perbukitan serta menjadi pusat berbagai aktivitas rekreasi air.",-6.860019402864855,108.10120545728036,"Jl. Jatigede, Cijeungjing, Kec. Jatigede, Kabupaten Sumedang, Jawa Barat 45377"
200,Wana Wisata Ciburial,"Kawasan hutan (""wana"") yang dikelola untuk tujuan pariwisata, biasanya dilengkapi dengan jalur setapak, area piknik, dan sumber mata air untuk rekreasi alam",-6.806217366831912,107.9558692281786,"Licin, Kec. Cimalaka, Kabupaten Sumedang, Jawa Barat 45353"
201,Warjem,"Singkatan populer dari ""Warung Jemaah"", sebuah warung makan lokal sederhana yang sangat dikenal dan menjadi favorit di kalangan masyarakat setempat.",-6.93475406467784,107.76799885607215,"Jl Raya Cibeusi No.61, Sayang, Kec. Jatinangor, Kabupaten Sumedang, Jawa Barat 45363"
202,Waroeng Hotplate,"Restoran yang menyajikan berbagai hidangan di atas piring panas (hotplate), menawarkan konsep kuliner modern yang menyasar segmen anak muda dan mahasiswa",-6.83574341485944,107.92931977736744,"Jl. Mayor Abdurahman No.225, Kotakaler, Kec. Sumedang Utara, Kabupaten Sumedang, Jawa Barat 45321"
203,Warung Nasi Mitra Sunda,"Warung nasi sederhana yang menyediakan menu lengkap masakan Sunda dengan konsep prasmanan, menjadi pilihan praktis untuk makan siang",-6.852075644437314,107.92285176024,"Jl. Prabu Geusan Ulun No.144, Regol Wetan, Kec. Sumedang Sel., Kabupaten Sumedang, Jawa Barat 45311"
204,Warung Pengkolan Jati,"Warung makan yang berlokasi strategis di sebuah tikungan (""pengkolan"") jalan, menjadi tempat makan yang mudah dijangkau dan populer bagi warga sekitar.",-6.775152770695362,107.91388759937954,"Jl. Raya Cimalaka Cipadung, Naluk, Kec. Cimalaka, Kabupaten Sumedang, Jawa Barat 45353"
205,Warung Suroboyo Cak Gun,"Warung yang menyajikan masakan khas Surabaya, Jawa Timur, menjadi pilihan bagi perantau atau warga yang ingin mencicipi cita rasa dari luar Sunda.",-6.933654534827611,107.77252445725,"Jl. Raya Jatinangor No.155A, Cikeruh, Kec. Jatinangor, Kabupaten Sumedang, Jawa Barat 45363"
206,Waterboom Paseh Asy-Syifaa Wal Mahmuudiyyah,"Taman rekreasi air yang terintegrasi dengan lembaga pendidikan atau sosial di bawah naungan yayasan Asy-Syifaa Wal Mahmuudiyyah, menawarkan hiburan keluarga yang bernuansa Islami.",-6.799099472938047,107.99761591265757,"Paseh Kaler, Kec. Paseh, Kabupaten Sumedang, Jawa Barat 45381"
207,"Wisata ""Pangcalikan""","Area yang menyediakan banyak tempat duduk (""pangcalikan"") di lokasi dengan pemandangan indah, dirancang khusus bagi pengunjung untuk bersantai sambil menikmati panorama alam",-6.826288381828684,108.00494132418844,"Sukatali, Kec. Situraja, Kabupaten Sumedang, Jawa Barat 45371"
208,Wisata Air GAJAH DEPA,"Wisata Air Gajah Depa merupakan salah satu wisata air yang ada di daerah Cimalaka. Berbagai fasilitas yang melengkapi wisata air Gajah Depa ini akan memanjakan pengunjung yang datang ke Gajah Depa. Salah satu fasilitas yang menjadi andalan wisata air Gajah Depan adalah family slide. Fasilitas bermain ini berbentuk papan luncur berukuran besar. Papan luncur ini bisa digunakan untuk bermain sekeluarga dengan meluncur bersama-sama dari atas. Dengan kapasitas sampai 10 orang, bukan hanya meluncur bersama keluarga saja, tapi bisa digunakan untuk meluncur bersama kelompok atau rombongan. Selain family slide, jenis permainan lain yang bisa dinikmati pengunjung adalah spiral slide atau papan luncur berbentuk spiral dengan panjang lintasan yang cukup memuaskan. Spill bucjet, water ball, water roller, water capsule, dan hand boat adalah jenis permainan di air lainnya yang tak kalah serunya. Semuanya bisa dinikmati oleh pengunjung wisata air Gajah Depa. Bagi yang malas berbasah-basahan, Gajah Depa menyediakan trampolin, istana boneka, dan kereta mini yang masih bisa dinikmati keseruannya.",-6.819493873026497,107.94492814691267,"Jl. Raya Serang No.90, Galudra, Kec. Cimalaka, Kabupaten Sumedang, Jawa Barat 45353"
209,Wisata Alam Cipacet,"Tempat wisata alam Cipacet di Desa Genteng, Kecamatan Sukasari menjadi salah satu destinasi pariwisata unggulan baru di Sumedang. Wisata Alam Cipacet terkenal dengan air sungainya yang jernih, aliran airnya yang deras membuat tempat tersebut seru digunakan untuk bermain air. Wisata Cipacet juga menyediakan tempat camping, wisatawan bisa memasang tenda di antara bentang alam yang indah. Namun, jika ingin menikmati wahana permainan, ada biaya tambahan untuk tiap jenis permainannya.",-6.854041247271469,107.771996082993,"Genteng, Kec. Sukasari, Kabupaten Sumedang, Jawa Barat 45366"
210,Wisata Alam Gajah Depa Sumedang,"estinasi wisata alam yang terletak di kawasan Gajah Depa, berupa hutan, perbukitan, atau air terjun yang dikelola untuk rekreasi",-6.815070493266286,107.94087433045374,"Jl. Raya Serang, Galudra, Kec. Cimalaka, Kabupaten Sumedang, Jawa Barat 45353"
211,Wisata Alam Paniisan,"Kawasan alam yang dikenal dengan suasananya yang sejuk dan menyegarkan (""paniisan""), menjadi tempat yang cocok untuk relaksasi dan menenangkan diri dari kesibukan.",-6.792294618791816,107.85165091260676,"Pangadegan, Kec. Rancakalong, Kabupaten Sumedang, Jawa Barat 45361"
212,Wisata Alam Taman Kincir Pareugreug,"Agrowisata Leuweung Tiis ada di wilayah Desa Trunamanggala, Kecamatan Cimalaka. Selain dekat pusat kota Sumedang, kawasan Agrowisata dengan ketinggian sekitar 691 meter di atas permukaan laut (mdpl) ini, memang memiliki panorama alam yang sangat indah. Disana, cocok bagi para pecinta alam yang gemar melakukan hiking atau berkemah di alam terbuka. Pemandangan kota Sumedang, serta keindahan Gunung Tampomas, juga dapat terlihat jelas di kawasan Agrowisata Leuweung Tiis tersebut. Beberapa fasilitas yang telah tersedia di kawasan Agrowisata Leuweung Tiis. Selain telah disediakan lokasi untuk Camping Ground seluas 1 hektar berikut perlengkapan kempingnya, di sana juga telah tersedia 12 saung paniisan, 1 bangunan gazebo, dan 3 lokal MCK. Leuweung Tiis Sumedang, Angrowisata terbaru dengan view gunung Tampomas, salah satu destinasi wisata unggulan di Kabupaten Sumedang.",-6.837434902483906,108.09151560043858,"Pajagan, Kec. Cisitu, Kabupaten Sumedang, Jawa Barat 45363"
213,Wisata Alam WATU BUBUT CIWADO,"Objek wisata alam yang menonjolkan formasi bebatuan (""watu"") unik hasil proses alam, menjadi daya tarik geologis utama di area Ciwado.",-6.642516088839833,107.98860189922108,"Cikawung, Kec. Terisi, Kabupaten Indramayu, Jawa Barat 45262"
214,Wisata Batu Dua,"Tempat wisata di Sumedang selanjutnya cocok untuk para wisatawan yang suka dengan olahraga paralayang. Para wisatawan akan merasakan sensasi terbang di atas ketinggian di kawasan Gunung Lingga atau lebih tepatnya di Desa Linggajaya, Kecamatan Cisitu, Kabupaten Sumedang.

Kawasan gunung lingga sendiri memiliki ketinggian sekitar 930 meter di atas permukaan laut, dan menyajikan hamparan pemandangan alam yang mempesona. Lokasi lepas landas (Take Off) olah raga paralayang di Batu Dua sangat layak dan ideal dipakai event dunia paralayang. Bagi yang memiliki hobi olahraga dirgantara, arena Batu Dua harus masuk dalam daftar tempat wisata di Sumedang yang akan dikunjungi.
",-6.900828833321466,108.01968377752648,"Jl. Batu Dua, Linggajaya, Kec. Cisitu, Kabupaten Sumedang, Jawa Barat 45363"
215,Wisata cicaneang,"Destinasi wisata yang berpusat di sekitar aliran Sungai Cicaneang, menawarkan keindahan alam riparian dan kemungkinan rekreasi air.",-6.836478228707223,107.9985180416214,"Jelegong, Haurkuning, Kec. Paseh, Kabupaten Sumedang, Jawa Barat 45381"
216,Wisata Cisema Jati Gede,"Area wisata populer di tepi Waduk Jatigede, tepatnya di blok Cisema, yang menjadi salah satu gerbang utama dan spot favorit untuk menikmati keindahan waduk",-6.871896920261641,108.07082027018912,"Pakualam, Kec. Darmaraja, Kabupaten Sumedang, Jawa Barat 45372"
217,Wisata Delta Island,"Sebuah pulau atau daratan yang terbentuk di tengah Waduk Jatigede akibat penggenangan, kini dikembangkan sebagai destinasi wisata unik yang dapat diakses dengan perahu",-6.851266494350696,107.93384104040904,"Jl. Tegal Sari, RT.04/RW.02, Talun, Kec. Sumedang Utara, Kabupaten Sumedang, Jawa Barat 45621"
218,Wisata Dewa Siwa,Dewa Siwa Leuwi Seeng merupakan sebuah lokasi wisata yang berada di kawasan Kampung Sanding Desa Kaduwulung Kecamatan Situraja Kabupaten Sumedang. Wisata ini memanfaatkan potensi alam sekitar dan aliran Sungai Cicapar. Tempat wisata ini berada di sebelah timur Kampung Sanding dengan jarak sekitar 100 meter. Pengunjung wisata Leuwi Seeng ini bisa menikmati segarnya suasana alam dan segar serta jernihnya air sungai Cicapar. Anak-anak bisa bermain air di sekitaran tanggul bendungan irigasi. Di pinggiran sungai disediakan sejumlah fasilitas yang akan memanjakan pengunjung wisata Leuwi Seeng ini seperti sejumlah bangunan gazeboo untuk beristirahat dan ada juga tenda Indian.,-6.878954998804288,107.99982155613507,"Kaduwulung, Kec. Situraja, Kabupaten Sumedang, Jawa Barat 45371"
219,Wisata Gunung Batu,"Area perbukitan Gunung Batu yang dikelola agar mudah diakses dan aman untuk kegiatan rekreasi keluarga, seperti piknik dan jalan santai",-6.922020047150013,107.79982244603688,"Cinanjung, Kec. Tanjungsari, Kabupaten Sumedang, Jawa Barat 45362"
220,Wisata Jatigede,"Istilah umum yang merujuk pada berbagai titik dan aktivitas wisata yang tersebar di sepanjang pesisir Waduk Jatigede, dari gardu pandang hingga penyewaan perahu",-6.875984924339779,108.13124112811413,"Burujul, Jemah, Kec. Jatigede, Kabupaten Sumedang, Jawa Barat 45377"
221,Wisata Kampoeng Ciherang,"Wana wisata Kampoeng Ciherang merupakan kawasan wisata yang relatif baru berdiri yang berada di wilayah Desa Cijambu Kecamatan Tanjungsari. Wana wisata ini berdiri sekitar akhir tahun 2016 di kawasan hutan pinus dekat dengan aliran sungai Ciherang. Wana wisata Kampoeng Ciherang menawarkan wisata alam yang didukung dengan berbagai fasilitas dan wahana yang akan memanjakan pengunjungnya.
Kawasan wisata yang memanfaatkan potensi yang ada di sini seperti tegakan pepohonan pinus dan aliran sungai Ciherang di areal dengan luas mencapai 12 hektar. Sehingga panorama alam hutan pinus yang terjaga keasriannya dengan kesegaran udaranya bisa dimanfaatkan baik bagi pengunjung maupun bagi pengelola.
Pengelola kawasan wisata ini menambahkan berbagai fasilitas dan wahana penunjang yang akan memanjakan pengunjung. Tidak mengherankan jika banyak fasilitas dan wahana yang bisa dicoba oleh pengunjung mulai fasilitas untuk beristirahat atau menenangkan diri sampai dengan wahana yang menantang nyali atau menguji adrenalin pengunjung. Baik wahana yang bisa dipergunakan oleh anak-anak maupun bagi orang tua serta bagi semua kalangan.",-6.829246406244793,107.79789249898914,"Cijambu, Kec. Tanjungsari, Kabupaten Sumedang, Jawa Barat 45362"
222,Wisata Menara Kujang,"Kujang Sapasang Jatigede adalah sebuah menara berbentuk kujang yang terletak di pesisir Waduk Jatigede, Kabupaten Sumedang, Jawa Barat. Menara ini memiliki tinggi sekitar 99 meter dan merupakan menara berbentuk kujang tertinggi dan terbesar di dunia.

Menara Kujang Sapasang diresmikan pada tanggal 13 Agustus 2023 oleh Gubernur Jawa Barat, Ridwan Kamil. Menara ini dibangun sebagai salah satu ikon wisata baru di Kabupaten Sumedang dan Jawa Barat.

Menara Kujang Sapasang memiliki dua lift yang dapat membawa pengunjung ke puncak menara. Dari puncak menara, pengunjung dapat menikmati pemandangan Waduk Jatigede dan sekitarnya yang menakjubkan.

Selain sebagai tempat wisata, Menara Kujang Sapasang juga berfungsi sebagai museum kujang. Di dalam menara, terdapat berbagai macam koleksi kujang dari berbagai zaman dan daerah.",-6.872062007180901,108.12098866866384,"Jemah, Kec. Jatigede, Kabupaten Sumedang, Jawa Barat 45377"
223,Wisata Panineungan Hegar,"Destinasi wisata Panineungan Hegar ini memang sangat luar biasa indah. Di sini, kita bisa melihat secara jelas pemandangan gunung-gunung dan pemukiman penduduk di wilayah Kabupaten Subang.",-6.739073808618561,107.84035711076014,"Panyingkiran, Cikaramas, Kec. Tanjungmedar, Kabupaten Sumedang, Jawa Barat 45354"
224,Wisata Pasir Cariu,"Nama unik dari singkatan Caringin Pasir Cariu, merupakan sebuah lokasi wisata di Desa Kaduwulung yang dikembangkan sebagai destinasi rekreasi lokal.",-6.88184318705882,107.99475793320713,"Loji Bambayang, Kaduwulung, Kec. Situraja, Kabupaten Sumedang, Jawa Barat 45371"
225,Wisata payung aruzona,"Spot wisata yang daya tarik utamanya adalah instalasi payung warna-warni yang digantung, menciptakan terowongan atau latar belakang yang sangat fotogenik",-6.790612779106703,107.84946835730668,"Paniisan jami uhe, desa, Pangadegan, Kec. Rancakalong, Kabupaten Sumedang, Jawa Barat 45354"
226,Wisata perahu pantai cibungur,"Layanan penyewaan perahu untuk menjelajahi perairan Waduk Jatigede dari titik ""pantai"" Cibungur, menawarkan cara lain untuk menikmati bendungan.",-6.919002029462025,108.0810197858144,"Jl. Raya Situraja-Wado No.16, Jatibungur, Kec. Darmaraja, Kabupaten Sumedang, Jawa Barat 45372"
227,Wisata Religi Pasulukan Dewi Candra Wulan,"Sebuah tempat untuk melakukan kontemplasi dan retret spiritual (""pasulukan"") yang didedikasikan untuk sosok spiritual Dewi Candra Wulan.",-6.913391044492578,107.98188803654884,"Loji Bambayang, Bangbayang, Kec. Situraja, Kabupaten Sumedang, Jawa Barat 45371"
228,Wisata Taman Buah Puncak Rahayu,"Agrowisata yang berlokasi di puncak bukit, di mana keluarga dapat merasakan pengalaman memetik buah langsung dari pohonnya sambil menikmati pemandangan alam",-6.879098179626488,107.87941585719162,"Dusun, Ciraja Blok Sukawenang, Mekar Rahayu, Kec. Sumedang Sel., Kabupaten Sumedang, Jawa Barat 45311"
229,Wisata Tanjung Duriat,"Wisata Alam atau Wana Wisata Tanjung Duriat terletak di pesisir barat laut Bendungan Jatigede. Tempat wisata ini menyajikan indahnya pemandangan bendungan Jatigede dari atas bukit yang menjorok ke arah bendungan. Sehingga tidak heran jika dinamakan dengan Tanjung. Kemudian digabung dengan kata Duriat yang berasal dari Bahasa Sunda yang melambangkan kasih sayang. Namun kasih sayang di sini bukan sekedar menggambarkan cinta kasih. Lebih dari itu, pengunjung bisa merasakan nuansa indahnya Waduk Jatigede dan melihat pelangi di saat hujan, melihat terbenamnya matahari dan munculnya bulan.
Untuk mewakili Wana Wisata Tanjung Duriat ini dibangunlah papan penanda (signboard) Tanjung Duriat dengan ikonnya berbentuk logo cinta (love). Tempat ini bisa dijadikan tempat untuk berfoto ria bersama teman (wefie) atau berfoto sendiri (selfie). Di Wana Wisata ini juga terdapat wahana lain yang bisa dijadikan tempat berfoto ria yaitu penanda arah ke beberapa kota yang berada di dunia dan tempat yang berada di seputaran Bendungan Jatigede. Informasi penanda arahnya dilengkapi dengan jarak dari Wana Wisata Tanjung Duriat. Kemudian bisa juga mengunjungi papan nama Bendungan Jatigede yang berukuran raksasa.",-6.859163955958642,108.09128623487288,"Pajagan, Kec. Cisitu, Kabupaten Sumedang, Jawa Barat 45363"
230,Wisata Tegal Jarong,"Wisata Tegal Jarong merupakan tempat wisata yang berada di wilayah Desa Cijeungjing. Kawasan wisata ini memanfaatkan bendungan Jatigede sebagai objek utama untuk menarik pengunjungnya. Wisata ini berlokasi di pesisir timur laut bendungan Jatigede.

Wisata Tegal Jarong selain menyajikan pemandangan alam bendungan Jatigede, juga menyajikan beberapa lokasi yang bisa digunakan untuk memancing, baik di pesisir bendungan Jatigede maupun agak ke tengah bendungan menggunakan rakit. Termasuk juga penyewaan perahu untuk mengelilingi bendungan Jatigede serta wisata kuliner di atas air bendungan Jatigede.",-6.8590051821250535,108.1079124716006,"Cijeungjing, Kec. Jatigede, Kabupaten Sumedang, Jawa Barat"
231,Wisata Ziarah Dayeuh luhur,"Desa Dayeuhluhur merupakan salah satu desa yang ada di dataran tinggi dan hamoir berada di puncak Gunung Rengganis. Dayeuhluhur yang sekarang menjadi desa di Kecamatan Ganeas, Sumedang awal abad 16 ini menjadi ibu kota Kerajaan Sumedanglarang. Jejak sebagai ibukota ini adanya tempat ngahyang Sanghiang Hawu (Sayanghawu) alias Embah Jayaperkasa salah seorang Kandagalante yang setia ke Prabu Geusan Ulun, Raja Sumedanglarang. Di dayehluhur juga ada makam Raja Sumedanglarang dan istrinya, Prabu Geusanulun dan Ratu Harisbaya. Dayeuhluhur menjadi salah satu ikon wisata ziarah di Kabupaten Sumedang. Desa Dayeuh Luhur menjadi salah satu tujuan wisata. Terutama wisata ziarah, karena di tempat ini terdapat makam keramat Prabu Geusan Ulun beserta makam istrinya, Ratu Harisbaya. Selain wisata ziarah, bagi yang ingin menikmati keindahan alam Sumedang, bisa mengunjungi wilayah Desa Dayeuh Luhur karena dari bagian utara wilayah Desa Dayeuh Luhur bisa melihat hamparan kota Sumedang beserta wilayah yang lebih rendah lainnya. Di tempat ini ada beberapa batu besar di puncak Gunung Bongkok yang biasa dinamakan Bagug Anjing. Kemudian ada juga sumber mata air yang dinamakan Cikahuripan.",-6.887048275404875,107.97323275688404,"Dayeuh Luhur, Kec. Ganeas, Kabupaten Sumedang, Jawa Barat 45356"
